{
  "type": "FeatureCollection",
  "features": [
    {
      "id": "0",
      "type": "Feature",
      "properties": {
        "name": "Agaléga",
        "id": "6608cbf2-463f-404b-b119-e37648da60a7",
        "cases": 0,
        "intensity": "Minimal",
        "color": "#FFFFE0",
        "label": "Agaléga: 0 cases",
        "radius_m": 0,
        "map_label": "Agaléga: 0 cases",
        "layerName": "Chikungunya Case Intensity (July 2026)"
      },
      "geometry": null
    },
    {
      "id": "1",
      "type": "Feature",
      "properties": {
        "name": "Saint Brandon",
        "id": "0d286bde-1201-44aa-a213-560165492203",
        "cases": 0,
        "intensity": "Minimal",
        "color": "#FFFFE0",
        "label": "Saint Brandon: 0 cases",
        "radius_m": 0,
        "map_label": "Saint Brandon: 0 cases",
        "layerName": "Chikungunya Case Intensity (July 2026)"
      },
      "geometry": null
    },
    {
      "id": "2",
      "type": "Feature",
      "properties": {
        "name": "Rodrigues",
        "id": "64a86342-7bc5-42a1-ad41-d3729738a92f",
        "cases": 0,
        "intensity": "Minimal",
        "color": "#FFFFE0",
        "label": "Rodrigues: 0 cases",
        "radius_m": 0,
        "map_label": "Rodrigues: 0 cases",
        "layerName": "Chikungunya Case Intensity (July 2026)"
      },
      "geometry": null
    },
    {
      "id": "3",
      "type": "Feature",
      "properties": {
        "name": "Black River",
        "id": "64631a5f-d907-40c0-81ac-0b4323a3248c",
        "cases": 857,
        "intensity": "High",
        "color": "#FFA500",
        "label": "Black River: 857 cases",
        "radius_m": 7318.640584152224,
        "map_label": "Black River: 857 cases",
        "layerName": "Chikungunya Case Intensity (July 2026)"
      },
      "geometry": {
        "type": "Polygon",
        "coordinates": [
          [
            [
              57.476581005786095,
              -20.329363433635702
            ],
            [
              57.47626326057568,
              -20.335846372214206
            ],
            [
              57.47527331185978,
              -20.34226870964201
            ],
            [
              57.473620612134184,
              -20.34856858579373
            ],
            [
              57.47132100240121,
              -20.354685312688456
            ],
            [
              57.46839656252381,
              -20.360559959581177
            ],
            [
              57.46487540116307,
              -20.36613592138738
            ],
            [
              57.46079138722183,
              -20.371359464932947
            ],
            [
              57.45618382529626,
              -20.37618024772633
            ],
            [
              57.45109707819676,
              -20.38055180420701
            ],
            [
              57.44558014013176,
              -20.384431994732648
            ],
            [
              57.43968616464679,
              -20.387783412922467
            ],
            [
              57.43347195187274,
              -20.390573747374837
            ],
            [
              57.42699740005346,
              -20.392776094217876
            ],
            [
              57.42032492669052,
              -20.394369217428903
            ],
            [
              57.413518864957375,
              -20.395337754368093
            ],
            [
              57.40664484129151,
              -20.39567236450626
            ],
            [
              57.39976914026949,
              -20.395369819884248
            ],
            [
              57.39295806300238,
              -20.394433036412607
            ],
            [
              57.38627728535728,
              -20.392871045701852
            ],
            [
              57.379791222312775,
              -20.390698907698116
            ],
            [
              57.37356240469261,
              -20.38793756498085
            ],
            [
              57.367650874393476,
              -20.38461364015209
            ],
            [
              57.36211360403049,
              -20.380759178305087
            ],
            [
              57.35700394667178,
              -20.376411337097338
            ],
            [
              57.352371121022045,
              -20.37161202746433
            ],
            [
              57.348259737051166,
              -20.36640750849088
            ],
            [
              57.34470936664901,
              -20.360847940399783
            ],
            [
              57.34175416342977,
              -20.35498690002208
            ],
            [
              57.33942253531042,
              -20.348880863471205
            ],
            [
              57.337736872957585,
              -20.342588661055526
            ],
            [
              57.336713336638,
              -20.336170909724068
            ],
            [
              57.33636170342843,
              -20.329689428548676
            ],
            [
              57.336685276145865,
              -20.323206642899585
            ],
            [
              57.337680854755654,
              -20.316784983069606
            ],
            [
              57.33933877040911,
              -20.310486283144577
            ],
            [
              57.341642981659184,
              -20.304371185903953
            ],
            [
              57.344571231809425,
              -20.29849855946637
            ],
            [
              57.348095265771924,
              -20.292924931271678
            ],
            [
              57.352181104250946,
              -20.287703944814893
            ],
            [
              57.356789372533655,
              -20.282885844320273
            ],
            [
              57.36187568066389,
              -20.27851699226917
            ],
            [
              57.36739105130177,
              -20.274639424374154
            ],
            [
              57.37328239113638,
              -20.271290446229614
            ],
            [
              57.37949300132289,
              -20.268502275467355
            ],
            [
              57.38596312206271,
              -20.26630173280957
            ],
            [
              57.39263050613828,
              -20.264709984944737
            ],
            [
              57.39943101595507,
              -20.26374234165867
            ],
            [
              57.40629923843331,
              -20.263408109137767
            ],
            [
              57.41316911193365,
              -20.26371050082949
            ],
            [
              57.419974559294246,
              -20.26464660670036
            ],
            [
              57.42665012100288,
              -20.26620742117986
            ],
            [
              57.43313158252697,
              -20.268377929524004
            ],
            [
              57.439356589876766,
              -20.27113725178059
            ],
            [
              57.44526524758204,
              -20.27445884299303
            ],
            [
              57.45080069341939,
              -20.27831074774792
            ],
            [
              57.45590964443547,
              -20.282655906655606
            ],
            [
              57.460542909069126,
              -20.287452511859907
            ],
            [
              57.464655860479745,
              -20.292654408205685
            ],
            [
              57.46820886654086,
              -20.29821153625605
            ],
            [
              57.47116767235096,
              -20.304070412949123
            ],
            [
              57.473503731547304,
              -20.310174645320338
            ],
            [
              57.47519448317961,
              -20.316465472394615
            ],
            [
              57.476223571403416,
              -20.322882330076265
            ],
            [
              57.476581005786095,
              -20.329363433635702
            ]
          ]
        ]
      }
    },
    {
      "id": "4",
      "type": "Feature",
      "properties": {
        "name": "Pamplemousses",
        "id": "3350497c-bbd0-4af4-a566-a815815d4016",
        "cases": 178,
        "intensity": "Low",
        "color": "#FFFF00",
        "label": "Pamplemousses: 178 cases",
        "radius_m": 3335.4160160315837,
        "map_label": "Pamplemousses: 178 cases",
        "layerName": "Chikungunya Case Intensity (July 2026)"
      },
      "geometry": {
        "type": "Polygon",
        "coordinates": [
          [
            [
              57.60329310170027,
              -20.10488621672074
            ],
            [
              57.60315078694509,
              -20.107840887826992
            ],
            [
              57.60270256344909,
              -20.110768153009865
            ],
            [
              57.6019527311741,
              -20.11363981926177
            ],
            [
              57.60090849592056,
              -20.116428227535312
            ],
            [
              57.59957990052829,
              -20.11910651924221
            ],
            [
              57.597979728687434,
              -20.12164889509579
            ],
            [
              57.59612338226483,
              -20.124030863797625
            ],
            [
              57.59402873331047,
              -20.126229478164642
            ],
            [
              57.591715952156335,
              -20.128223556412486
            ],
            [
              57.58920731325429,
              -20.129993886453033
            ],
            [
              57.58652698061976,
              -20.13152341122668
            ],
            [
              57.58370077494867,
              -20.132797393272565
            ],
            [
              57.580755924657005,
              -20.13380355694021
            ],
            [
              57.57772080325192,
              -20.134532206862065
            ],
            [
              57.574624655579285,
              -20.134976321536076
            ],
            [
              57.57149731560307,
              -20.13513162110909
            ],
            [
              57.56836891845719,
              -20.134996608701773
            ],
            [
              57.56526960956702,
              -20.134572584872995
            ],
            [
              57.56222925366756,
              -20.13386363508243
            ],
            [
              57.55927714654631,
              -20.132876590272655
            ],
            [
              57.55644173231169,
              -20.131620960953104
            ],
            [
              57.553750328933134,
              -20.130108845425966
            ],
            [
              57.55122886471621,
              -20.128354813044737
            ],
            [
              57.54890162826773,
              -20.12637576363871
            ],
            [
              57.546791034371346,
              -20.124190764467507
            ],
            [
              57.54491740803664,
              -20.12182086628713
            ],
            [
              57.54329878880444,
              -20.119288900310693
            ],
            [
              57.541950757191124,
              -20.11661925803129
            ],
            [
              57.540886284936605,
              -20.113837656038825
            ],
            [
              57.540115610486396,
              -20.110970888106667
            ],
            [
              57.53964614089118,
              -20.108046566945106
            ],
            [
              57.53948238104939,
              -20.105092858116546
            ],
            [
              57.53962589095179,
              -20.10213820868122
            ],
            [
              57.5400752713156,
              -20.09921107319037
            ],
            [
              57.54082617772121,
              -20.096339639667605
            ],
            [
              57.54187136308999,
              -20.09355155821667
            ],
            [
              57.54320074806968,
              -20.090873674866256
            ],
            [
              57.54480151862676,
              -20.088331773210147
            ],
            [
              57.546658249886065,
              -20.085950326323623
            ],
            [
              57.54875305500848,
              -20.083752261336706
            ],
            [
              57.551065757660574,
              -20.08175873892138
            ],
            [
              57.5535740864072,
              -20.079988949805447
            ],
            [
              57.55625388915201,
              -20.07845993026107
            ],
            [
              57.55907936556244,
              -20.0771863983334
            ],
            [
              57.56202331524758,
              -20.076180612375133
            ],
            [
              57.56505739931004,
              -20.075452253238648
            ],
            [
              57.568152412768505,
              -20.075008331251258
            ],
            [
              57.57127856524624,
              -20.074853118861274
            ],
            [
              57.57440576724426,
              -20.07498810959763
            ],
            [
              57.57750391926608,
              -20.07541200373426
            ],
            [
              57.580543201034544,
              -20.07612072079549
            ],
            [
              57.583494358040426,
              -20.077107438782427
            ],
            [
              57.58632898268771,
              -20.078362659745263
            ],
            [
              57.589019787350374,
              -20.07987430107472
            ],
            [
              57.591540866731115,
              -20.081627811640494
            ],
            [
              57.59386794701214,
              -20.083606311666358
            ],
            [
              57.5959786194112,
              -20.085790755005075
            ],
            [
              57.59785255590186,
              -20.088160112260958
            ],
            [
              57.59947170502416,
              -20.090691573008332
            ],
            [
              57.600820465898266,
              -20.09336076516975
            ],
            [
              57.601885838759216,
              -20.096141989453074
            ],
            [
              57.602657550551726,
              -20.09900846660007
            ],
            [
              57.60312815436061,
              -20.101932595075155
            ],
            [
              57.60329310170027,
              -20.10488621672074
            ]
          ]
        ]
      }
    },
    {
      "id": "5",
      "type": "Feature",
      "properties": {
        "name": "Flacq",
        "id": "3f9005be-4b02-450a-9f80-fe2291d7f81b",
        "cases": 67,
        "intensity": "Low",
        "color": "#FFFF00",
        "label": "Flacq: 67 cases",
        "radius_m": 2046.3381929681125,
        "map_label": "Flacq: 67 cases",
        "layerName": "Chikungunya Case Intensity (July 2026)"
      },
      "geometry": {
        "type": "Polygon",
        "coordinates": [
          [
            [
              57.734583759406426,
              -20.22721362824762
            ],
            [
              57.73449794343042,
              -20.229026371160305
            ],
            [
              57.734224294279635,
              -20.23082244525472
            ],
            [
              57.733765441009936,
              -20.23258455269549
            ],
            [
              57.73312579673392,
              -20.23429572219835
            ],
            [
              57.732311516347124,
              -20.23593947251983
            ],
            [
              57.73133043745428,
              -20.237499971247512
            ],
            [
              57.73019200505697,
              -20.238962187359302
            ],
            [
              57.728907180721265,
              -20.240312036078954
            ],
            [
              57.72748833709534,
              -20.241536514629267
            ],
            [
              57.72594913878953,
              -20.242623827571236
            ],
            [
              57.72430441076471,
              -20.24356350051767
            ],
            [
              57.72256999549699,
              -20.244346481121674
            ],
            [
              57.72076260029662,
              -20.24496522636287
            ],
            [
              57.71889963625583,
              -20.245413775286803
            ],
            [
              57.71699905038244,
              -20.24568780649309
            ],
            [
              57.7150791525431,
              -20.245784679815674
            ],
            [
              57.71315843889099,
              -20.245703461791326
            ],
            [
              57.711255413488175,
              -20.245444934669383
            ],
            [
              57.70938840984948,
              -20.24501158887539
            ],
            [
              57.70757541413672,
              -20.244407599001125
            ],
            [
              57.70583389171515,
              -20.243638783553347
            ],
            [
              57.70418061875146,
              -20.24271254885074
            ],
            [
              57.702631520482605,
              -20.24163781761197
            ],
            [
              57.70120151771977,
              -20.24042494292592
            ],
            [
              57.69990438307037,
              -20.239085608436366
            ],
            [
              57.698752608266055,
              -20.237632715706656
            ],
            [
              57.69775728387558,
              -20.236080259853637
            ],
            [
              57.69692799256056,
              -20.23444319465292
            ],
            [
              57.69627271689933,
              -20.232737288419163
            ],
            [
              57.69579776266272,
              -20.23097897205319
            ],
            [
              57.69550769827436,
              -20.22918518072331
            ],
            [
              57.69540531103154,
              -20.227373190708228
            ],
            [
              57.695491580499755,
              -20.22556045297557
            ],
            [
              57.69576566932808,
              -20.223764425100057
            ],
            [
              57.69622493156409,
              -20.22200240314088
            ],
            [
              57.69686493837882,
              -20.220291355097316
            ],
            [
              57.697679520944625,
              -20.21864775754522
            ],
            [
              57.698660830044155,
              -20.217087437026166
            ],
            [
              57.69979941182914,
              -20.2156254177138
            ],
            [
              57.701084298992605,
              -20.21427577682146
            ],
            [
              57.70250311647194,
              -20.21305150913969
            ],
            [
              57.704042200661604,
              -20.211964402003904
            ],
            [
              57.70568673098612,
              -20.211024921892296
            ],
            [
              57.70742087256692,
              -20.210242113741224
            ],
            [
              57.709227928611384,
              -20.209623513943782
            ],
            [
              57.71109050106082,
              -20.2091750778651
            ],
            [
              57.71299065795607,
              -20.208901122568996
            ],
            [
              57.71491010591589,
              -20.208804285304332
            ],
            [
              57.71683036607569,
              -20.208885498148657
            ],
            [
              57.718732951800895,
              -20.209143979051692
            ],
            [
              57.720599546473224,
              -20.209577239364055
            ],
            [
              57.722412179647236,
              -20.21018110777899
            ],
            [
              57.72415339988982,
              -20.210949770457347
            ],
            [
              57.72580644264687,
              -20.2118758269513
            ],
            [
              57.727355391528135,
              -20.212950361390625
            ],
            [
              57.7287853314633,
              -20.214163028249338
            ],
            [
              57.73008249225938,
              -20.215502151870364
            ],
            [
              57.73123438117992,
              -20.2169548387939
            ],
            [
              57.73222990327073,
              -20.21850710181213
            ],
            [
              57.7330594682727,
              -20.220143994559955
            ],
            [
              57.733715083089834,
              -20.221849755349993
            ],
            [
              57.73419042891775,
              -20.223607958870733
            ],
            [
              57.734480922284156,
              -20.225401674290456
            ],
            [
              57.734583759406426,
              -20.22721362824762
            ]
          ]
        ]
      }
    },
    {
      "id": "6",
      "type": "Feature",
      "properties": {
        "name": "Moka",
        "id": "351f0a46-f54b-4a01-9ab5-f78d471e9fb0",
        "cases": 110,
        "intensity": "Low",
        "color": "#FFFF00",
        "label": "Moka: 110 cases",
        "radius_m": 2622.022120425379,
        "map_label": "Moka: 110 cases",
        "layerName": "Chikungunya Case Intensity (July 2026)"
      },
      "geometry": {
        "type": "Polygon",
        "coordinates": [
          [
            [
              57.6079253169126,
              -20.250332814963148
            ],
            [
              57.60781346829076,
              -20.25265549339369
            ],
            [
              57.60746091839423,
              -20.25495664026189
            ],
            [
              57.60687105207644,
              -20.25721409311757
            ],
            [
              57.60604954041452,
              -20.25940610938134
            ],
            [
              57.605004286465444,
              -20.261511575816787
            ],
            [
              57.60374534948467,
              -20.263510211974495
            ],
            [
              57.60228484832428,
              -20.265382765644148
            ],
            [
              57.600636844930165,
              -20.267111198427283
            ],
            [
              57.5988172090525,
              -20.268678859637106
            ],
            [
              57.596843465466804,
              -20.270070646843664
            ],
            [
              57.594734625174965,
              -20.271273151510943
            ],
            [
              57.59251100221271,
              -20.272274788315958
            ],
            [
              57.59019401783183,
              -20.27306590689695
            ],
            [
              57.58780599394997,
              -20.273638884948085
            ],
            [
              57.58536993786694,
              -20.27398820175752
            ],
            [
              57.58290932033282,
              -20.274110491476044
            ],
            [
              57.58044784911898,
              -20.274004575599122
            ],
            [
              57.57800924028799,
              -20.273671474346788
            ],
            [
              57.57561698938083,
              -20.27311439683102
            ],
            [
              57.57329414474136,
              -20.27233871010517
            ],
            [
              57.57106308517612,
              -20.271351887395443
            ],
            [
              57.56894530410543,
              -20.270163436016297
            ],
            [
              57.566961202297065,
              -20.26878480566798
            ],
            [
              57.56512989118894,
              -20.267229278005285
            ],
            [
              57.5634690087032,
              -20.265511838547052
            ],
            [
              57.56199454933037,
              -20.26364903216721
            ],
            [
              57.56072071012189,
              -20.26165880356638
            ],
            [
              57.5596597540732,
              -20.25956032426774
            ],
            [
              57.55882189220878,
              -20.25737380781045
            ],
            [
              57.558215185497545,
              -20.255120314927314
            ],
            [
              57.557845467533305,
              -20.252821550588646
            ],
            [
              57.5577162887131,
              -20.250499654871973
            ],
            [
              57.55782888243693,
              -20.24817698967544
            ],
            [
              57.55818215363926,
              -20.245875923331404
            ],
            [
              57.558772689747286,
              -20.243618615195544
            ],
            [
              57.559594793944235,
              -20.24142680228577
            ],
            [
              57.56064054040234,
              -20.2393215900237
            ],
            [
              57.561899850939284,
              -20.23732324909102
            ],
            [
              57.56336059234746,
              -20.235451020352723
            ],
            [
              57.56500869344835,
              -20.23372292972034
            ],
            [
              57.566828280736935,
              -20.232155614732005
            ],
            [
              57.568801831304974,
              -20.230764164512582
            ],
            [
              57.570910341568094,
              -20.229561974647844
            ],
            [
              57.57313351017338,
              -20.228560618363097
            ],
            [
              57.57544993332975,
              -20.227769735239843
            ],
            [
              57.57783731068708,
              -20.227196938535425
            ],
            [
              57.58027265979115,
              -20.226847741992607
            ],
            [
              57.582732537060686,
              -20.226725506838825
            ],
            [
              57.58519326317228,
              -20.22683140948173
            ],
            [
              57.58763115069728,
              -20.22716443020985
            ],
            [
              57.590022731814045,
              -20.227721363005713
            ],
            [
              57.592344983918444,
              -20.228496846377496
            ],
            [
              57.59457555097469,
              -20.229483414913744
            ],
            [
              57.596692958489314,
              -20.230671571067784
            ],
            [
              57.59867682005011,
              -20.23204987648469
            ],
            [
              57.6005080334517,
              -20.23360506199661
            ],
            [
              57.60216896452675,
              -20.23532215523337
            ],
            [
              57.60364361691745,
              -20.23718462462613
            ],
            [
              57.60491778615481,
              -20.23917453842449
            ],
            [
              57.605979196560504,
              -20.24127273720295
            ],
            [
              57.606817619649405,
              -20.24345901820259
            ],
            [
              57.607424972885056,
              -20.24571232973909
            ],
            [
              57.607795397828056,
              -20.248010973811194
            ],
            [
              57.6079253169126,
              -20.250332814963148
            ]
          ]
        ]
      }
    },
    {
      "id": "7",
      "type": "Feature",
      "properties": {
        "name": "Rivière du Rempart District",
        "id": "85ae6382-bbb5-4d37-803d-d54c0ad66fc6",
        "cases": 102,
        "intensity": "Low",
        "color": "#FFFF00",
        "label": "Rivière du Rempart District: 102 cases",
        "radius_m": 2524.8762345905193,
        "map_label": "Rivière du Rempart District: 102 cases",
        "layerName": "Chikungunya Case Intensity (July 2026)"
      },
      "geometry": {
        "type": "Polygon",
        "coordinates": [
          [
            [
              57.67698634629816,
              -20.056667131616486
            ],
            [
              57.67687967469588,
              -20.058903815333647
            ],
            [
              57.67654150051182,
              -20.061119848168993
            ],
            [
              57.67597507100996,
              -20.063293887495668
            ],
            [
              57.67518583234558,
              -20.065404994254564
            ],
            [
              57.67418137745728,
              -20.067432834680485
            ],
            [
              57.67297137324559,
              -20.06935787622907
            ],
            [
              57.67156746772802,
              -20.071161575813818
            ],
            [
              57.66998317805465,
              -20.072826558535397
            ],
            [
              57.66823376045542,
              -20.07433678517636
            ],
            [
              57.666336063366764,
              -20.07567770684169
            ],
            [
              57.66430836514983,
              -20.076836405249345
            ],
            [
              57.66217019796403,
              -20.077801717312802
            ],
            [
              57.659942159495884,
              -20.078564342809116
            ],
            [
              57.65764571436251,
              -20.07911693408941
            ],
            [
              57.655302987111185,
              -20.079454166962236
            ],
            [
              57.65293654881968,
              -20.07957279206238
            ],
            [
              57.650569199364966,
              -20.07947166620687
            ],
            [
              57.648223747471135,
              -20.079151763433636
            ],
            [
              57.64592279066937,
              -20.078616165615575
            ],
            [
              57.64368849730367,
              -20.077870032740407
            ],
            [
              57.641542392696,
              -20.076920553144287
            ],
            [
              57.63950515154333,
              -20.07577687418119
            ],
            [
              57.63759639855757,
              -20.07445001399972
            ],
            [
              57.63583451927806,
              -20.07295275528215
            ],
            [
              57.63423648288593,
              -20.071299521974687
            ],
            [
              57.632817678731335,
              -20.069506240202553
            ],
            [
              57.63159176814987,
              -20.06759018471625
            ],
            [
              57.63057055299423,
              -20.06556981235436
            ],
            [
              57.62976386214348,
              -20.06346458413361
            ],
            [
              57.62917945707616,
              -20.061294777685514
            ],
            [
              57.628822957408076,
              -20.05908129185162
            ],
            [
              57.62869778710039,
              -20.056845445323614
            ],
            [
              57.62880514184382,
              -20.054608771271194
            ],
            [
              57.629143977918964,
              -20.052392809937786
            ],
            [
              57.629711022625756,
              -20.050218901202445
            ],
            [
              57.630500806166935,
              -20.048107979105747
            ],
            [
              57.631505714664605,
              -20.046080370316417
            ],
            [
              57.63271606378628,
              -20.044155598477154
            ],
            [
              57.63412019225976,
              -20.042352196309697
            ],
            [
              57.635704574366855,
              -20.040687527283794
            ],
            [
              57.637453950325444,
              -20.03917761856175
            ],
            [
              57.639351473299314,
              -20.03783700682112
            ],
            [
              57.64137887161846,
              -20.036678598433735
            ],
            [
              57.64351662464833,
              -20.03571354534078
            ],
            [
              57.6457441506182,
              -20.034951137813113
            ],
            [
              57.64804000460599,
              -20.034398715123196
            ],
            [
              57.6503820847818,
              -20.03406159498363
            ],
            [
              57.65274784493463,
              -20.033943022427355
            ],
            [
              57.655114511248,
              -20.03404413861811
            ],
            [
              57.65745930125057,
              -20.034363969889373
            ],
            [
              57.65975964284728,
              -20.03489943711603
            ],
            [
              57.66199339133612,
              -20.035645385328934
            ],
            [
              57.66413904233443,
              -20.036594633288384
            ],
            [
              57.66617593857724,
              -20.037738042542088
            ],
            [
              57.668084468607276,
              -20.039064605306223
            ],
            [
              57.66984625545326,
              -20.04056155032809
            ],
            [
              57.67144433348622,
              -20.04221446571665
            ],
            [
              57.67286331175577,
              -20.04400743756411
            ],
            [
              57.67408952223517,
              -20.045923203030213
            ],
            [
              57.67511115154677,
              -20.047943316421676
            ],
            [
              57.67591835489577,
              -20.050048326673856
            ],
            [
              57.67650335110856,
              -20.05221796453165
            ],
            [
              57.676860497852,
              -20.054431337632323
            ],
            [
              57.67698634629816,
              -20.056667131616486
            ]
          ]
        ]
      }
    },
    {
      "id": "8",
      "type": "Feature",
      "properties": {
        "name": "Savanne",
        "id": "b2d44092-06b3-49e5-8129-1bbdcd480038",
        "cases": 277,
        "intensity": "Moderate",
        "color": "#FFA500",
        "label": "Savanne: 277 cases",
        "radius_m": 4160.82924427331,
        "map_label": "Savanne: 277 cases",
        "layerName": "Chikungunya Case Intensity (July 2026)"
      },
      "geometry": {
        "type": "Polygon",
        "coordinates": [
          [
            [
              57.5378823189775,
              -20.465055095599098
            ],
            [
              57.537703054114196,
              -20.468740786732084
            ],
            [
              57.537141297814486,
              -20.47239216879192
            ],
            [
              57.536202433609844,
              -20.47597407395336
            ],
            [
              57.534895478684234,
              -20.479452001137407
            ],
            [
              57.53323299798127,
              -20.482792448480282
            ],
            [
              57.53123098403596,
              -20.485963236262513
            ],
            [
              57.52890870365578,
              -20.488933817177273
            ],
            [
              57.526288512900436,
              -20.491675570936177
            ],
            [
              57.52339564212147,
              -20.49416208035908
            ],
            [
              57.520257953118545,
              -20.496369386271276
            ],
            [
              57.51690567074554,
              -20.498276218734677
            ],
            [
              57.513371091553466,
              -20.499864202366744
            ],
            [
              57.50968827228712,
              -20.50111803375152
            ],
            [
              57.50589270125274,
              -20.502025629216767
            ],
            [
              57.50202095574726,
              -20.502578241538583
            ],
            [
              57.49811034887856,
              -20.502770544436615
            ],
            [
              57.494198569214085,
              -20.50260068403612
            ],
            [
              57.49032331676686,
              -20.50207029679502
            ],
            [
              57.48652193886563,
              -20.501184493720068
            ],
            [
              57.48283106945648,
              -20.49995181102544
            ],
            [
              57.47928627534981,
              -20.49838412771341
            ],
            [
              57.47592171285564,
              -20.496496550879122
            ],
            [
              57.47276979814682,
              -20.494307269855568
            ],
            [
              57.469860894551175,
              -20.491837380617696
            ],
            [
              57.467223019804294,
              -20.48911068215309
            ],
            [
              57.464881576094875,
              -20.48615344677836
            ],
            [
              57.46285910550726,
              -20.48299416663209
            ],
            [
              57.4611750732129,
              -20.479663278804715
            ],
            [
              57.459845680487774,
              -20.47619287177078
            ],
            [
              57.458883709337485,
              -20.472616375967824
            ],
            [
              57.458298400201194,
              -20.46896824151675
            ],
            [
              57.45809536388117,
              -20.465283606199982
            ],
            [
              57.45827652851017,
              -20.461597956904036
            ],
            [
              57.45884012202907,
              -20.457946787793386
            ],
            [
              57.4597806903032,
              -20.45436525850979
            ],
            [
              57.46108915066217,
              -20.45088785568748
            ],
            [
              57.462752880309466,
              -20.44754806103935
            ],
            [
              57.46475583871382,
              -20.444378029202234
            ],
            [
              57.46707872277267,
              -20.441408278432394
            ],
            [
              57.469699153227225,
              -20.438667397116266
            ],
            [
              57.47259189051434,
              -20.43618176890651
            ],
            [
              57.47572907796427,
              -20.43397531911329
            ],
            [
              57.47908050999748,
              -20.432069284774517
            ],
            [
              57.48261392274096,
              -20.430482010601217
            ],
            [
              57.4862953042759,
              -20.429228772745216
            ],
            [
              57.49008922154723,
              -20.42832163206972
            ],
            [
              57.49395916081131,
              -20.427769318321303
            ],
            [
              57.497867878373135,
              -20.427577146306295
            ],
            [
              57.50177775827038,
              -20.427746964869662
            ],
            [
              57.50565117349707,
              -20.42827713916127
            ],
            [
              57.50945084732792,
              -20.429162566357903
            ],
            [
              57.51314021130333,
              -20.43039472469021
            ],
            [
              57.51668375646592,
              -20.431961755306897
            ],
            [
              57.520047374501885,
              -20.433848576195583
            ],
            [
              57.523198685533295,
              -20.436037027073848
            ],
            [
              57.52610734943126,
              -20.438506043868802
            ],
            [
              57.52874535767154,
              -20.44123186112035
            ],
            [
              57.53108730293528,
              -20.444188240376416
            ],
            [
              57.53311062386363,
              -20.447346722398528
            ],
            [
              57.53479582260692,
              -20.450676900767714
            ],
            [
              57.536126653063214,
              -20.45414671427347
            ],
            [
              57.53709027797572,
              -20.45772275528719
            ],
            [
              57.53767739335213,
              -20.461370591165206
            ],
            [
              57.5378823189775,
              -20.465055095599098
            ]
          ]
        ]
      }
    },
    {
      "id": "9",
      "type": "Feature",
      "properties": {
        "name": "Port Louis",
        "id": "604c4c55-5a6f-411f-a9f8-664fd26922a6",
        "cases": 863,
        "intensity": "High",
        "color": "#FFA500",
        "label": "Port Louis: 863 cases",
        "radius_m": 7344.215410784191,
        "map_label": "Port Louis: 863 cases",
        "layerName": "Chikungunya Case Intensity (July 2026)"
      },
      "geometry": {
        "type": "Polygon",
        "coordinates": [
          [
            [
              57.587508541197394,
              -20.167968683218465
            ],
            [
              57.587194468708105,
              -20.17447448467731
            ],
            [
              57.58620651169568,
              -20.180919884279856
            ],
            [
              57.58455410354336,
              -20.18724280025786
            ],
            [
              57.58225308239886,
              -20.193382323181048
            ],
            [
              57.579325541557644,
              -20.199279303164396
            ],
            [
              57.57579961927747,
              -20.204876920387782
            ],
            [
              57.57170922994712,
              -20.210121233400603
            ],
            [
              57.56709373911422,
              -20.214961699889056
            ],
            [
              57.56199758543646,
              -20.219351664841383
            ],
            [
              57.556469853154596,
              -20.223248811355273
            ],
            [
              57.550563799186236,
              -20.226615569687418
            ],
            [
              57.544336339400935,
              -20.229419480547087
            ],
            [
              57.537847499055665,
              -20.23163350907703
            ],
            [
              57.531159832738105,
              -20.233236306443736
            ],
            [
              57.52433781948047,
              -20.234212416469312
            ],
            [
              57.51744723896464,
              -20.234552425274632
            ],
            [
              57.51055453493567,
              -20.23425305246115
            ],
            [
              57.50372617207517,
              -20.233317182932797
            ],
            [
              57.49702799265428,
              -20.23175383904263
            ],
            [
              57.49052457928891,
              -20.2295780933351
            ],
            [
              57.484278630056984,
              -20.22681092273901
            ],
            [
              57.47835035210913,
              -20.22347900564111
            ],
            [
              57.47279687971244,
              -20.219614463830478
            ],
            [
              57.46767172241407,
              -20.215254551843323
            ],
            [
              57.46302424870089,
              -20.210441296751256
            ],
            [
              57.458899210165896,
              -20.205221091918276
            ],
            [
              57.45533631077806,
              -20.199644248697105
            ],
            [
              57.45236982539232,
              -20.193764510441362
            ],
            [
              57.45002827113844,
              -20.187638533570034
            ],
            [
              57.448334134794656,
              -20.181325340734585
            ],
            [
              57.447303658692825,
              -20.174885751400545
            ],
            [
              57.44694668712053,
              -20.168381795365235
            ],
            [
              57.44726657458969,
              -20.161876114888155
            ],
            [
              57.44826015673606,
              -20.155431361209455
            ],
            [
              57.44991778400637,
              -20.14910959127507
            ],
            [
              57.45222341768561,
              -20.14297167047372
            ],
            [
              57.45515478722139,
              -20.13707668712207
            ],
            [
              57.45868360722125,
              -20.13148138431114
            ],
            [
              57.46277585193822,
              -20.12623961455025
            ],
            [
              57.46739208452248,
              -20.12140182241763
            ],
            [
              57.47248783781049,
              -20.117014560151123
            ],
            [
              57.47801404294734,
              -20.113120040790303
            ],
            [
              57.4839175017021,
              -20.109755733118284
            ],
            [
              57.49014139793726,
              -20.106954002248056
            ],
            [
              57.496625843340915,
              -20.104741799260772
            ],
            [
              57.50330845222068,
              -20.103140402835056
            ],
            [
              57.510124939899214,
              -20.102165215311132
            ],
            [
              57.51700973904032,
              -20.101825615116734
            ],
            [
              57.52389662807469,
              -20.10212486694763
            ],
            [
              57.53071936578855,
              -20.103060090549224
            ],
            [
              57.53741232608274,
              -20.104622288391226
            ],
            [
              57.543911126909926,
              -20.10679643197144
            ],
            [
              57.55015324744965,
              -20.10956160593023
            ],
            [
              57.55607862768563,
              -20.11289120861082
            ],
            [
              57.56163024470779,
              -20.11675320716615
            ],
            [
              57.5667546602693,
              -20.121110444796084
            ],
            [
              57.57140253438697,
              -20.125920997203156
            ],
            [
              57.57552910007963,
              -20.13113857488597
            ],
            [
              57.57909459468982,
              -20.136712967451547
            ],
            [
              57.58206464362913,
              -20.14259052572335
            ],
            [
              57.58441059282225,
              -20.148714677057608
            ],
            [
              57.58610978659603,
              -20.155026468956923
            ],
            [
              57.587145788264856,
              -20.161465135792685
            ],
            [
              57.587508541197394,
              -20.167968683218465
            ]
          ]
        ]
      }
    },
    {
      "id": "10",
      "type": "Feature",
      "properties": {
        "name": "Grand Port",
        "id": "6ed8d4f2-7353-47a3-8fad-856f4f8c745f",
        "cases": 157,
        "intensity": "Low",
        "color": "#FFFF00",
        "label": "Grand Port: 157 cases",
        "radius_m": 3132.491021535417,
        "map_label": "Grand Port: 157 cases",
        "layerName": "Chikungunya Case Intensity (July 2026)"
      },
      "geometry": {
        "type": "Polygon",
        "coordinates": [
          [
            [
              57.68161347379842,
              -20.394768357692808
            ],
            [
              57.6814811203189,
              -20.397543205527892
            ],
            [
              57.68106092623898,
              -20.400292458960685
            ],
            [
              57.680356923273976,
              -20.40298963957527
            ],
            [
              57.67937587742287,
              -20.405608769108934
            ],
            [
              57.67812722434459,
              -20.40812461974912
            ],
            [
              57.67662297896345,
              -20.410512957250525
            ],
            [
              57.67487762015577,
              -20.41275077452484
            ],
            [
              57.67290795161295,
              -20.414816513445693
            ],
            [
              57.67073294020902,
              -20.416690272723894
            ],
            [
              57.66837353342176,
              -20.41835399984096
            ],
            [
              57.665852457562366,
              -20.419791665181993
            ],
            [
              57.66319399875804,
              -20.420989416680044
            ],
            [
              57.660423768802524,
              -20.421935713472468
            ],
            [
              57.65756845813963,
              -20.42262143727189
            ],
            [
              57.654655578372484,
              -20.423039980370824
            ],
            [
              57.65171319679554,
              -20.423187309424634
            ],
            [
              57.64876966552598,
              -20.42306200439319
            ],
            [
              57.645853347864886,
              -20.422665272262172
            ],
            [
              57.64299234454631,
              -20.422000935410185
            ],
            [
              57.64021422253394,
              -20.421075394733975
            ],
            [
              57.637545748999294,
              -20.41989756788958
            ],
            [
              57.63501263306414,
              -20.418478803248306
            ],
            [
              57.632639277812885,
              -20.416832770402845
            ],
            [
              57.63044854497799,
              -20.41497532828556
            ],
            [
              57.62846153457649,
              -20.41292437217849
            ],
            [
              57.626697381627054,
              -20.41069966109836
            ],
            [
              57.62517307190811,
              -20.408322627229538
            ],
            [
              57.62390327853001,
              -20.405816169251008
            ],
            [
              57.62290022088891,
              -20.403204431558073
            ],
            [
              57.62217354735046,
              -20.40051257151461
            ],
            [
              57.621730242779044,
              -20.397766516986056
            ],
            [
              57.621574561785785,
              -20.39499271649531
            ],
            [
              57.62170798831823,
              -20.392217884413228
            ],
            [
              57.62212922195903,
              -20.38946874364122
            ],
            [
              57.62283419104316,
              -20.38677176826572
            ],
            [
              57.62381609244425,
              -20.38415292866224
            ],
            [
              57.625065457625055,
              -20.381637441501486
            ],
            [
              57.62657024429557,
              -20.37924952706044
            ],
            [
              57.62831595277801,
              -20.377012176169472
            ],
            [
              57.630285765943135,
              -20.37494692903211
            ],
            [
              57.63246071135916,
              -20.37307366803857
            ],
            [
              57.63481984408411,
              -20.371410426558544
            ],
            [
              57.63734044833887,
              -20.36997321554416
            ],
            [
              57.6399982561197,
              -20.368775869602832
            ],
            [
              57.642767680651325,
              -20.3678299140119
            ],
            [
              57.64562206244193,
              -20.367144453946526
            ],
            [
              57.64853392558444,
              -20.366726086979046
            ],
            [
              57.651475241852744,
              -20.366578839685452
            ],
            [
              57.654417700068876,
              -20.36670412896387
            ],
            [
              57.657332978168675,
              -20.367100748434
            ],
            [
              57.66019301536782,
              -20.367764880046753
            ],
            [
              57.662970281830084,
              -20.368690130792597
            ],
            [
              57.66563804326228,
              -20.369867594157384
            ],
            [
              57.66817061790832,
              -20.37128593573812
            ],
            [
              57.67054362348522,
              -20.372931502200117
            ],
            [
              57.6727342116983,
              -20.374788452533874
            ],
            [
              57.67472128808822,
              -20.376838910356298
            ],
            [
              57.67648571510038,
              -20.379063135799488
            ],
            [
              57.67801049642425,
              -20.381439715341816
            ],
            [
              57.67928094082596,
              -20.383945767763798
            ],
            [
              57.68028480389087,
              -20.38655716425543
            ],
            [
              57.68101240630136,
              -20.389248760565007
            ],
            [
              57.68145672749702,
              -20.391994638962228
            ],
            [
              57.68161347379842,
              -20.394768357692808
            ]
          ]
        ]
      }
    },
    {
      "id": "11",
      "type": "Feature",
      "properties": {
        "name": "Plaines Wilhems",
        "id": "be77099e-1834-49b5-bcb1-13b799ad3a38",
        "cases": 3779,
        "intensity": "Very High",
        "color": "#FF0000",
        "label": "Plaines Wilhems: 3779 cases",
        "radius_m": 15368.392889303683,
        "map_label": "Plaines Wilhems: 3779 cases",
        "layerName": "Chikungunya Case Intensity (July 2026)"
      },
      "geometry": {
        "type": "Polygon",
        "coordinates": [
          [
            [
              57.645693983382465,
              -20.318614471293944
            ],
            [
              57.64504156756516,
              -20.332228276318883
            ],
            [
              57.64297742555017,
              -20.34571617680554
            ],
            [
              57.639521076671535,
              -20.358948237793644
            ],
            [
              57.634705472882956,
              -20.371796956023765
            ],
            [
              57.62857669439839,
              -20.384138490510562
            ],
            [
              57.62119351748153,
              -20.39585385900856
            ],
            [
              57.612626858087715,
              -20.406830088706883
            ],
            [
              57.602959096327815,
              -20.416961309888332
            ],
            [
              57.59228328795765,
              -20.42614978180201
            ],
            [
              57.580702270283936,
              -20.434306840624572
            ],
            [
              57.568327671003864,
              -20.44135376011869
            ],
            [
              57.555278829542985,
              -20.447222516431033
            ],
            [
              57.541681641413014,
              -20.451856449399955
            ],
            [
              57.52766733696141,
              -20.455210813755492
            ],
            [
              57.51337120661643,
              -20.457253214680122
            ],
            [
              57.498931285332645,
              -20.4579639233483
            ],
            [
              57.48448700940474,
              -20.457336069261917
            ],
            [
              57.470177859131695,
              -20.455375707434932
            ],
            [
              57.45614200097712,
              -20.452101759739307
            ],
            [
              57.442514942878866,
              -20.447545830991782
            ],
            [
              57.42942821621443,
              -20.441751901621796
            ],
            [
              57.417008097628546,
              -20.434775900001174
            ],
            [
              57.405374383481366,
              -20.426685158721448
            ],
            [
              57.39463922908719,
              -20.41755776026152
            ],
            [
              57.38490606419267,
              -20.407481778583904
            ],
            [
              57.37626859530321,
              -20.396554424220373
            ],
            [
              57.36880990451617,
              -20.38488110134682
            ],
            [
              57.36260165347744,
              -20.37257438619357
            ],
            [
              57.35770339995461,
              -20.359752936882305
            ],
            [
              57.35416203333376,
              -20.34654034541969
            ],
            [
              57.352011334111346,
              -20.33306394310316
            ],
            [
              57.351271661183915,
              -20.319453571004797
            ],
            [
              57.351949769450925,
              -20.30584032749102
            ],
            [
              57.35403875895492,
              -20.292355304909258
            ],
            [
              57.35751815550079,
              -20.279128327626715
            ],
            [
              57.362354121435516,
              -20.266286703543877
            ],
            [
              57.368499794043046,
              -20.253954001028045
            ],
            [
              57.37589574782541,
              -20.24224886292316
            ],
            [
              57.38447057581082,
              -20.231283868897165
            ],
            [
              57.39414158396066,
              -20.22116445689038
            ],
            [
              57.40481559174619,
              -20.211987913835273
            ],
            [
              57.416389831039865,
              -20.2038424451349
            ],
            [
              57.428752934619865,
              -20.196806331621485
            ],
            [
              57.44178600482433,
              -20.190947181875593
            ],
            [
              57.45536375221833,
              -20.186321286877842
            ],
            [
              57.46935569355357,
              -20.1829730829973
            ],
            [
              57.483627397812526,
              -20.180934728302567
            ],
            [
              57.49804176873471,
              -20.180225796121118
            ],
            [
              57.51246035192755,
              -20.180853088680163
            ],
            [
              57.526744654465695,
              -20.18281057254585
            ],
            [
              57.54075746478406,
              -20.186079436447876
            ],
            [
              57.55436416066981,
              -20.190628270941826
            ],
            [
              57.56743399325763,
              -20.1964133682325
            ],
            [
              57.57984133513005,
              -20.20337913936611
            ],
            [
              57.59146688092019,
              -20.211458644908326
            ],
            [
              57.60219878920581,
              -20.220574234167067
            ],
            [
              57.61193375497033,
              -20.23063828700229
            ],
            [
              57.620578002485715,
              -20.24155405130004
            ],
            [
              57.62804818914181,
              -20.253216568280916
            ],
            [
              57.63427221150331,
              -20.265513676974006
            ],
            [
              57.63918990571578,
              -20.278327088422447
            ],
            [
              57.64275363530095,
              -20.29153351950397
            ],
            [
              57.64492876037481,
              -20.305005875655787
            ],
            [
              57.645693983382465,
              -20.318614471293944
            ]
          ]
        ]
      }
    }
  ]
}