{
  "type": "FeatureCollection",
  "features": [
    {
      "id": "0",
      "type": "Feature",
      "properties": {
        "name": "Agaléga",
        "id": "6608cbf2-463f-404b-b119-e37648da60a7",
        "cases": 0,
        "intensity": "Minimal",
        "color": "#FFFFE0",
        "label": "Agaléga: 0 cases",
        "radius": 0,
        "layerName": "District Case Volume (Graduated Symbols)"
      },
      "geometry": null
    },
    {
      "id": "1",
      "type": "Feature",
      "properties": {
        "name": "Saint Brandon",
        "id": "0d286bde-1201-44aa-a213-560165492203",
        "cases": 0,
        "intensity": "Minimal",
        "color": "#FFFFE0",
        "label": "Saint Brandon: 0 cases",
        "radius": 0,
        "layerName": "District Case Volume (Graduated Symbols)"
      },
      "geometry": null
    },
    {
      "id": "2",
      "type": "Feature",
      "properties": {
        "name": "Rodrigues",
        "id": "64a86342-7bc5-42a1-ad41-d3729738a92f",
        "cases": 0,
        "intensity": "Minimal",
        "color": "#FFFFE0",
        "label": "Rodrigues: 0 cases",
        "radius": 0,
        "layerName": "District Case Volume (Graduated Symbols)"
      },
      "geometry": null
    },
    {
      "id": "3",
      "type": "Feature",
      "properties": {
        "name": "Black River",
        "id": "64631a5f-d907-40c0-81ac-0b4323a3248c",
        "cases": 857,
        "intensity": "High",
        "color": "#FFA500",
        "label": "Black River: 857 cases",
        "radius": 3805.693103759156,
        "layerName": "District Case Volume (Graduated Symbols)"
      },
      "geometry": {
        "type": "Polygon",
        "coordinates": [
          [
            [
              57.44292863067414,
              -20.329451927845305
            ],
            [
              57.44276267559511,
              -20.332823038651508
            ],
            [
              57.44224719873732,
              -20.336162571262815
            ],
            [
              57.44138714247811,
              -20.339438361551704
            ],
            [
              57.440190769279404,
              -20.342618857316342
            ],
            [
              57.43866958289964,
              -20.345673422318974
            ],
            [
              57.43683821829935,
              -20.348572631571773
            ],
            [
              57.43471430127385,
              -20.35128855501702
            ],
            [
              57.432318279142315,
              -20.353795026858137
            ],
            [
              57.429673224107056,
              -20.356067897934313
            ],
            [
              57.42680461116555,
              -20.358085268693486
            ],
            [
              57.42374007270992,
              -20.359827700504315
            ],
            [
              57.42050913217916,
              -20.36127840325642
            ],
            [
              57.417142919338325,
              -20.362423397426763
            ],
            [
              57.41367386994147,
              -20.36325164903715
            ],
            [
              57.41013541269196,
              -20.36375517619028
            ],
            [
              57.406561646540354,
              -20.363929126147884
            ],
            [
              57.402987011457256,
              -20.363771822200434
            ],
            [
              57.39944595588433,
              -20.363284779871766
            ],
            [
              57.395972604099654,
              -20.362472692300432
            ],
            [
              57.39260042673498,
              -20.36134338493943
            ],
            [
              57.389361917650845,
              -20.359907740014524
            ],
            [
              57.3862882803116,
              -20.358179591475785
            ],
            [
              57.38340912670739,
              -20.35617559146354
            ],
            [
              57.380752191745074,
              -20.353915049586547
            ],
            [
              57.37834306587448,
              -20.3514197465742
            ],
            [
              57.37620494853596,
              -20.34871372411209
            ],
            [
              57.37435842480697,
              -20.345823052900737
            ],
            [
              57.372821267396155,
              -20.342775581186913
            ],
            [
              57.371608265882124,
              -20.339600666204557
            ],
            [
              57.37073108482596,
              -20.336328891125554
            ],
            [
              57.37019815210284,
              -20.33299177025879
            ],
            [
              57.370014578502044,
              -20.32962144534688
            ],
            [
              57.3701821093404,
              -20.3262503758929
            ],
            [
              57.37069910852275,
              -20.322911026504418
            ],
            [
              57.37156057516971,
              -20.319635554267826
            ],
            [
              57.37275819261897,
              -20.316455499162387
            ],
            [
              57.37428040929627,
              -20.313401480491606
            ],
            [
              57.376112550647285,
              -20.310502902248114
            ],
            [
              57.37823696102661,
              -20.307787670240305
            ],
            [
              57.38063317415566,
              -20.30528192369323
            ],
            [
              57.38327811049219,
              -20.303009783895032
            ],
            [
              57.38614629960017,
              -20.300993122295196
            ],
            [
              57.3892101253751,
              -20.29925135027245
            ],
            [
              57.39244009176584,
              -20.29780123258186
            ],
            [
              57.39580510644304,
              -20.29665672626286
            ],
            [
              57.399272779697384,
              -20.29582884654577
            ],
            [
              57.402809735709894,
              -20.29532556103622
            ],
            [
              57.40638193322181,
              -20.295151713186236
            ],
            [
              57.40995499254448,
              -20.2953089757814
            ],
            [
              57.41349452579194,
              -20.295795834887027
            ],
            [
              57.416966467188246,
              -20.296607604405736
            ],
            [
              57.42033740030212,
              -20.297736471107132
            ],
            [
              57.4235748790889,
              -20.299171569699777
            ],
            [
              57.426647739678,
              -20.300899087228856
            ],
            [
              57.429526399929266,
              -20.302902395803425
            ],
            [
              57.43218314389511,
              -20.305162212386293
            ],
            [
              57.43459238846551,
              -20.30765678412071
            ],
            [
              57.436730929638486,
              -20.3103620974237
            ],
            [
              57.43857816604881,
              -20.31325210884731
            ],
            [
              57.44011629759986,
              -20.31629899550001
            ],
            [
              57.44133049727736,
              -20.31947342263143
            ],
            [
              57.44220905447547,
              -20.32274482581749
            ],
            [
              57.4427434884347,
              -20.326081705040917
            ],
            [
              57.44292863067414,
              -20.329451927845305
            ]
          ]
        ]
      }
    },
    {
      "id": "4",
      "type": "Feature",
      "properties": {
        "name": "Pamplemousses",
        "id": "3350497c-bbd0-4af4-a566-a815815d4016",
        "cases": 178,
        "intensity": "Low",
        "color": "#FFFF00",
        "label": "Pamplemousses: 178 cases",
        "radius": 1734.4163283364235,
        "layerName": "District Case Volume (Graduated Symbols)"
      },
      "geometry": {
        "type": "Polygon",
        "coordinates": [
          [
            [
              57.5879786020601,
              -20.10493791501795
            ],
            [
              57.58790444920599,
              -20.106474341461546
            ],
            [
              57.587671228525736,
              -20.107996503332963
            ],
            [
              57.58728118155518,
              -20.109489740879653
            ],
            [
              57.58673806047374,
              -20.110939672504344
            ],
            [
              57.58604709213001,
              -20.112332333302295
            ],
            [
              57.58521492784684,
              -20.113654309599674
            ],
            [
              57.5842495794842,
              -20.114892868195593
            ],
            [
              57.58316034237059,
              -20.116036079060777
            ],
            [
              57.58195770584202,
              -20.117072930308407
            ],
            [
              57.58065325224783,
              -20.11799343432704
            ],
            [
              57.57925954539475,
              -20.11878872405019
            ],
            [
              57.57779000950448,
              -20.119451138432222
            ],
            [
              57.576258799851765,
              -20.11997429630436
            ],
            [
              57.57468066633212,
              -20.12035315789649
            ],
            [
              57.57307081127733,
              -20.120584073429637
            ],
            [
              57.57144474289305,
              -20.12066481830913
            ],
            [
              57.56981812573613,
              -20.120594614577612
            ],
            [
              57.56820662967822,
              -20.120374138420278
            ],
            [
              57.56662577881703,
              -20.12000551364951
            ],
            [
              57.565090801797155,
              -20.119492291231992
            ],
            [
              57.563616484988884,
              -20.11883941505582
            ],
            [
              57.56221702994487,
              -20.118053174268987
            ],
            [
              57.560905916513164,
              -20.117141142650116
            ],
            [
              57.559695772929366,
              -20.116112105597477
            ],
            [
              57.55859825414238,
              -20.11497597544247
            ],
            [
              57.55762392954777,
              -20.113743695905995
            ],
            [
              57.55678218121093,
              -20.112427136621047
            ],
            [
              57.556081113559436,
              -20.11103897874064
            ],
            [
              57.55552747541288,
              -20.10959259273573
            ],
            [
              57.55512659509759,
              -20.10810190956302
            ],
            [
              57.554882329267166,
              -20.10658128644586
            ],
            [
              57.55479702591629,
              -20.10504536856307
            ],
            [
              57.55487150193825,
              -20.10350894797929
            ],
            [
              57.555105035435616,
              -20.101986821176617
            ],
            [
              57.55549537285114,
              -20.10049364655991
            ],
            [
              57.55603875084374,
              -20.09904380330808
            ],
            [
              57.55672993269191,
              -20.097651252929765
            ],
            [
              57.55756225886791,
              -20.09632940485541
            ],
            [
              57.55852771129034,
              -20.095090987358375
            ],
            [
              57.559616990631746,
              -20.09394792504559
            ],
            [
              57.56081960593329,
              -20.09291122409509
            ],
            [
              57.5621239756614,
              -20.091990866342467
            ],
            [
              57.563517539232265,
              -20.0911957132333
            ],
            [
              57.56498687793043,
              -20.09053342056323
            ],
            [
              57.56651784405915,
              -20.090010364823687
            ],
            [
              57.56809569708139,
              -20.089631581859912
            ],
            [
              57.569705245444716,
              -20.08940071842922
            ],
            [
              57.57133099272947,
              -20.089319997124008
            ],
            [
              57.57295728671848,
              -20.089390194995694
            ],
            [
              57.57456846995923,
              -20.089610636084295
            ],
            [
              57.57614903037544,
              -20.08997919792506
            ],
            [
              57.577683750484134,
              -20.090492331969696
            ],
            [
              57.579157853787976,
              -20.091145097726223
            ],
            [
              57.58055714693919,
              -20.09193121029001
            ],
            [
              57.58186815631113,
              -20.092843100809986
            ],
            [
              57.5830782576672,
              -20.093871989310227
            ],
            [
              57.58417579768125,
              -20.09500796916811
            ],
            [
              57.58515020614197,
              -20.096240102438575
            ],
            [
              57.58599209776105,
              -20.097556525109557
            ],
            [
              57.586693362604656,
              -20.09894456127802
            ],
            [
              57.5872472442752,
              -20.100390845150347
            ],
            [
              57.58764840508787,
              -20.101881449694726
            ],
            [
              57.58789297760973,
              -20.103402020709446
            ],
            [
              57.5879786020601,
              -20.10493791501795
            ]
          ]
        ]
      }
    },
    {
      "id": "5",
      "type": "Feature",
      "properties": {
        "name": "Flacq",
        "id": "3f9005be-4b02-450a-9f80-fe2291d7f81b",
        "cases": 67,
        "intensity": "Low",
        "color": "#FFFF00",
        "label": "Flacq: 67 cases",
        "radius": 1064.0958603434185,
        "layerName": "District Case Volume (Graduated Symbols)"
      },
      "geometry": {
        "type": "Polygon",
        "coordinates": [
          [
            [
              57.7251809662543,
              -20.22725272047359
            ],
            [
              57.725136285344874,
              -20.22819534618171
            ],
            [
              57.724993932895146,
              -20.229129298980162
            ],
            [
              57.724755278124505,
              -20.23004558421377
            ],
            [
              57.72442261781565,
              -20.230935377222647
            ],
            [
              57.723999154256454,
              -20.231790108341226
            ],
            [
              57.7234889644546,
              -20.232601545447018
            ],
            [
              57.722896960919115,
              -20.233361873263178
            ],
            [
              57.7222288443847,
              -20.234063768650685
            ],
            [
              57.72149104893309,
              -20.23470047116357
            ],
            [
              57.72069068003878,
              -20.235265848186852
            ],
            [
              57.71983544613558,
              -20.235754454028598
            ],
            [
              57.7189335843632,
              -20.236161582395795
            ],
            [
              57.717993781209415,
              -20.2364833117474
            ],
            [
              57.717025088813585,
              -20.236716543086857
            ],
            [
              57.7160368377387,
              -20.236859029828906
            ],
            [
              57.715038547054334,
              -20.236909399452387
            ],
            [
              57.71403983259848,
              -20.23686716672977
            ],
            [
              57.71305031430438,
              -20.236732738405518
            ],
            [
              57.712079523487304,
              -20.23650740927821
            ],
            [
              57.71113681098688,
              -20.236193349723912
            ],
            [
              57.71023125705212,
              -20.235793584781447
            ],
            [
              57.70937158383938,
              -20.2353119650014
            ],
            [
              57.70856607136792,
              -20.234753129340245
            ],
            [
              57.70782247774443,
              -20.234122460457964
            ],
            [
              57.70714796442582,
              -20.233426032850552
            ],
            [
              57.70654902724119,
              -20.232670554318123
            ],
            [
              57.70603143383746,
              -20.231863301333544
            ],
            [
              57.70560016815093,
              -20.23101204893524
            ],
            [
              57.70525938243898,
              -20.230124995820432
            ],
            [
              57.70501235733256,
              -20.229210685361373
            ],
            [
              57.704861470292876,
              -20.228277923306376
            ],
            [
              57.704808172773724,
              -20.227335692958714
            ],
            [
              57.70485297630745,
              -20.226393068651277
            ],
            [
              57.70499544764601,
              -20.225459128350415
            ],
            [
              57.705234213001134,
              -20.22454286623103
            ],
            [
              57.70556697134047,
              -20.223653106064763
            ],
            [
              57.705990516608864,
              -20.222798416255017
            ],
            [
              57.70650076865859,
              -20.221987027336848
            ],
            [
              57.707092812588506,
              -20.22122675273525
            ],
            [
              57.707760946111534,
              -20.220524913544256
            ],
            [
              57.7084987344931,
              -20.219888268050227
            ],
            [
              57.7092990725304,
              -20.21932294667694
            ],
            [
              57.71015425297543,
              -20.218834392977726
            ],
            [
              57.71105604074287,
              -20.218427311241793
            ],
            [
              57.71199575218889,
              -20.21810562121818
            ],
            [
              57.71296433869843,
              -20.217872420392084
            ],
            [
              57.713952473777624,
              -20.217729954176143
            ],
            [
              57.714950642814586,
              -20.217679594302727
            ],
            [
              57.71594923464612,
              -20.21772182562467
            ],
            [
              57.7169386340514,
              -20.217856241451322
            ],
            [
              57.71790931428399,
              -20.218081547464394
            ],
            [
              57.718851928753935,
              -20.218395574176093
            ],
            [
              57.71975740097949,
              -20.21879529780971
            ],
            [
              57.72061701194435,
              -20.21927686940214
            ],
            [
              57.7214224840214,
              -20.21983565184873
            ],
            [
              57.722166060656285,
              -20.220466264534494
            ],
            [
              57.72284058104494,
              -20.221162635123054
            ],
            [
              57.72343954908659,
              -20.221918058005496
            ],
            [
              57.723957195948486,
              -20.22272525884754
            ],
            [
              57.72438853563995,
              -20.22357646461457
            ],
            [
              57.72472941305968,
              -20.224463478401397
            ],
            [
              57.72497654405238,
              -20.225377758347094
            ],
            [
              57.72512754708774,
              -20.226310499875986
            ],
            [
              57.7251809662543,
              -20.22725272047359
            ]
          ]
        ]
      }
    },
    {
      "id": "6",
      "type": "Feature",
      "properties": {
        "name": "Moka",
        "id": "351f0a46-f54b-4a01-9ab5-f78d471e9fb0",
        "cases": 110,
        "intensity": "Low",
        "color": "#FFFF00",
        "label": "Moka: 110 cases",
        "radius": 1363.451502621197,
        "layerName": "District Case Volume (Graduated Symbols)"
      },
      "geometry": {
        "type": "Polygon",
        "coordinates": [
          [
            [
              57.59587519640997,
              -20.25037416718757
            ],
            [
              57.59581694212472,
              -20.25158195840399
            ],
            [
              57.59563352611802,
              -20.252778544804826
            ],
            [
              57.595326711976604,
              -20.25395240229704
            ],
            [
              57.59489945187857,
              -20.255092225429127
            ],
            [
              57.59435585826273,
              -20.2561870362904
            ],
            [
              57.593701164312364,
              -20.25722629026457
            ],
            [
              57.59294167363075,
              -20.258199977618226
            ],
            [
              57.592084699590245,
              -20.259098719944113
            ],
            [
              57.59113849493654,
              -20.2599138605291
            ],
            [
              57.590112172325156,
              -20.260637547774262
            ],
            [
              57.58901561655442,
              -20.26126281086205
            ],
            [
              57.58785938934068,
              -20.26178362693961
            ],
            [
              57.58665462755378,
              -20.262194979169443
            ],
            [
              57.58541293589492,
              -20.26249290508636
            ],
            [
              57.584146275052994,
              -20.26267453479362
            ],
            [
              57.582866846419556,
              -20.262738118628793
            ],
            [
              57.581586974476885,
              -20.262683044032052
            ],
            [
              57.58031898799538,
              -20.26250984145362
            ],
            [
              57.57907510118914,
              -20.262220179243307
            ],
            [
              57.5778672959781,
              -20.261816847571204
            ],
            [
              57.5767072064953,
              -20.261303731535108
            ],
            [
              57.57560600695502,
              -20.26068577371433
            ],
            [
              57.57457430396518,
              -20.259968926531762
            ],
            [
              57.57362203432408,
              -20.259160094884503
            ],
            [
              57.5727583692877,
              -20.25826706959713
            ],
            [
              57.57199162623102,
              -20.257298452340468
            ],
            [
              57.5713291885546,
              -20.25626357274092
            ],
            [
              57.57077743460754,
              -20.25517239848057
            ],
            [
              57.570341676310115,
              -20.254035439255887
            ],
            [
              57.57002610806527,
              -20.252863645521582
            ],
            [
              57.56983376644846,
              -20.251668302996684
            ],
            [
              57.56976650106063,
              -20.250460923949806
            ],
            [
              57.569824956821456,
              -20.249253136311864
            ],
            [
              57.57000856786927,
              -20.248056571684764
            ],
            [
              57.570315563121994,
              -20.246882753324797
            ],
            [
              57.57074298344149,
              -20.24574298517965
            ],
            [
              57.57128671023177,
              -20.244648243046868
            ],
            [
              57.571941505191724,
              -20.243609068901556
            ],
            [
              57.5727010608363,
              -20.242635469409354
            ],
            [
              57.57355806129671,
              -20.24173681960104
            ],
            [
              57.5745042528119,
              -20.240921772634348
            ],
            [
              57.575530523231286,
              -20.240198176510507
            ],
            [
              57.57662698976223,
              -20.239572998545324
            ],
            [
              57.57778309411785,
              -20.239052258320434
            ],
            [
              57.57898770414965,
              -20.23864096975837
            ],
            [
              57.58022922098828,
              -20.2383430928776
            ],
            [
              57.581495690663125,
              -20.238161495690424
            ],
            [
              57.582774919129044,
              -20.238097926609562
            ],
            [
              57.58405458959609,
              -20.23815299762783
            ],
            [
              57.58532238103646,
              -20.238326178432512
            ],
            [
              57.586566086731416,
              -20.238615801510566
            ],
            [
              57.58777373172097,
              -20.23901907819574
            ],
            [
              57.58893368802933,
              -20.239532125503334
            ],
            [
              57.590034786560054,
              -20.24015000349525
            ],
            [
              57.59106642458692,
              -20.24086676281636
            ],
            [
              57.59201866780815,
              -20.24167550194604
            ],
            [
              57.59288234598306,
              -20.24256843361512
            ],
            [
              57.59364914123175,
              -20.243536959750468
            ],
            [
              57.59431166814797,
              -20.244571754227415
            ],
            [
              57.59486354495314,
              -20.24566285263509
            ],
            [
              57.59529945500568,
              -20.246799748192018
            ],
            [
              57.59561519807073,
              -20.247971492890187
            ],
            [
              57.595807730854624,
              -20.249166802894997
            ],
            [
              57.59587519640997,
              -20.25037416718757
            ]
          ]
        ]
      }
    },
    {
      "id": "7",
      "type": "Feature",
      "properties": {
        "name": "Rivière du Rempart District",
        "id": "85ae6382-bbb5-4d37-803d-d54c0ad66fc6",
        "cases": 102,
        "intensity": "Low",
        "color": "#FFFF00",
        "label": "Rivière du Rempart District: 102 cases",
        "radius": 1312.93564198707,
        "layerName": "District Case Volume (Graduated Symbols)"
      },
      "geometry": {
        "type": "Polygon",
        "coordinates": [
          [
            [
              57.66539713988394,
              -20.05671112957355
            ],
            [
              57.66534158538322,
              -20.05787420397527
            ],
            [
              57.66516565216675,
              -20.05902653219643
            ],
            [
              57.66487103198942,
              -20.060157016409377
            ],
            [
              57.66446055980754,
              -20.061254768925895
            ],
            [
              57.663938186568906,
              -20.062309217070986
            ],
            [
              57.663308941244765,
              -20.063310205031108
            ],
            [
              57.66257888246609,
              -20.06424809169479
            ],
            [
              57.661755040227526,
              -20.06511384354224
            ],
            [
              57.66084534821818,
              -20.065899121687526
            ],
            [
              57.65985856743,
              -20.066596362233742
            ],
            [
              57.658804201778466,
              -20.067198849165045
            ],
            [
              57.65769240654866,
              -20.06770077907212
            ],
            [
              57.65653389054957,
              -20.06809731708568
            ],
            [
              57.65533981292029,
              -20.068384643477835
            ],
            [
              57.6541216755847,
              -20.068559990480832
            ],
            [
              57.652891212392944,
              -20.068621668967562
            ],
            [
              57.65166027602113,
              -20.06856908473561
            ],
            [
              57.65044072372179,
              -20.068402744237734
            ],
            [
              57.649244303029725,
              -20.06812424970292
            ],
            [
              57.648082538527476,
              -20.06773628369531
            ],
            [
              57.646966620765184,
              -20.06724258325999
            ],
            [
              57.64590729840774,
              -20.066647903905498
            ],
            [
              57.644914774651426,
              -20.065957973770832
            ],
            [
              57.64399860890985,
              -20.065179438419882
            ],
            [
              57.64316762471837,
              -20.064319796796365
            ],
            [
              57.642429824744866,
              -20.06338732895787
            ],
            [
              57.6417923137261,
              -20.062391016286703
            ],
            [
              57.64126123007148,
              -20.061340454947857
            ],
            [
              57.64084168679187,
              -20.060245763429283
            ],
            [
              57.640537722320765,
              -20.059117485056607
            ],
            [
              57.64035226169873,
              -20.0579664864226
            ],
            [
              57.640287088492386,
              -20.056803852710793
            ],
            [
              57.64034282771449,
              -20.05564078092242
            ],
            [
              57.640518939906315,
              -20.054488472035388
            ],
            [
              57.640813726435084,
              -20.05335802313434
            ],
            [
              57.64122434595166,
              -20.05226032055049
            ],
            [
              57.641746841846256,
              -20.05120593503995
            ],
            [
              57.64237618043405,
              -20.05020502000924
            ],
            [
              57.64310629949997,
              -20.049267213767198
            ],
            [
              57.64393016673261,
              -20.048401546743076
            ],
            [
              57.64483984748231,
              -20.047616354563058
            ],
            [
              57.64582658118983,
              -20.046919197820486
            ],
            [
              57.64688086574899,
              -20.046316789310666
            ],
            [
              57.64799254899103,
              -20.045814929429213
            ],
            [
              57.64915092641059,
              -20.04541845035437
            ],
            [
              57.65034484419411,
              -20.045131169549045
            ],
            [
              57.651562806560506,
              -20.044955853029116
            ],
            [
              57.652793086383575,
              -20.04489418875025
            ],
            [
              57.65402383803399,
              -20.04494677036885
            ],
            [
              57.65524321135794,
              -20.045113091532595
            ],
            [
              57.656439465698575,
              -20.045391550755497
            ],
            [
              57.65760108286613,
              -20.04577946683044
            ],
            [
              57.65871687797245,
              -20.046273104631208
            ],
            [
              57.65977610706624,
              -20.04686771105628
            ],
            [
              57.660768570535325,
              -20.047557560769302
            ],
            [
              57.66168471128286,
              -20.048336011296932
            ],
            [
              57.662515706734006,
              -20.049195566955174
            ],
            [
              57.66325355378817,
              -20.050127950990024
            ],
            [
              57.66389114589933,
              -20.051124185239722
            ],
            [
              57.66442234154172,
              -20.052174676552944
            ],
            [
              57.664842023400844,
              -20.05326930913281
            ],
            [
              57.6651461477177,
              -20.054397541918654
            ],
            [
              57.66533178330893,
              -20.05554851006961
            ],
            [
              57.66539713988394,
              -20.05671112957355
            ]
          ]
        ]
      }
    },
    {
      "id": "8",
      "type": "Feature",
      "properties": {
        "name": "Savanne",
        "id": "b2d44092-06b3-49e5-8129-1bbdcd480038",
        "cases": 277,
        "intensity": "Moderate",
        "color": "#FFA500",
        "label": "Savanne: 277 cases",
        "radius": 2163.631207022121,
        "layerName": "District Case Volume (Graduated Symbols)"
      },
      "geometry": {
        "type": "Polygon",
        "coordinates": [
          [
            [
              57.518733550430255,
              -20.46511327679892
            ],
            [
              57.518640095556826,
              -20.467029831303893
            ],
            [
              57.518347752828156,
              -20.46892852371447
            ],
            [
              57.517859330506376,
              -20.4707910677622
            ],
            [
              57.51717952572285,
              -20.47259952467156
            ],
            [
              57.51631487949796,
              -20.474336475976024
            ],
            [
              57.51527371397352,
              -20.475985191345487
            ],
            [
              57.514066052453856,
              -20.477529789806027
            ],
            [
              57.51270352301826,
              -20.478955392795513
            ],
            [
              57.511199246627406,
              -20.480248267576666
            ],
            [
              57.50956771079807,
              -20.48139595962177
            ],
            [
              57.50782463006103,
              -20.482387412688908
            ],
            [
              57.5059867945468,
              -20.48321307542829
            ],
            [
              57.504071908160384,
              -20.48386499348706
            ],
            [
              57.50209841790819,
              -20.484336886220774
            ],
            [
              57.50008533602767,
              -20.48462420726878
            ],
            [
              57.49805205664089,
              -20.484724188406652
            ],
            [
              57.4960181687074,
              -20.484635866250645
            ],
            [
              57.49400326708815,
              -20.484360091555263
            ],
            [
              57.49202676355105,
              -20.483899521013736
            ],
            [
              57.49010769954924,
              -20.483258591640446
            ],
            [
              57.488264562585705,
              -20.48244347798339
            ],
            [
              57.48651510794281,
              -20.48146203258097
            ],
            [
              57.484876187502074,
              -20.480323710239443
            ],
            [
              57.48336358731002,
              -20.479039476864294
            ],
            [
              57.48199187545996,
              -20.47762170372772
            ],
            [
              57.48077426175799,
              -20.4760840481955
            ],
            [
              57.47972247052605,
              -20.47444132206685
            ],
            [
              57.47884662776634,
              -20.472709348800418
            ],
            [
              57.478155163770545,
              -20.47090481100624
            ],
            [
              57.47765473210707,
              -20.46904508967707
            ],
            [
              57.477350145759466,
              -20.467148096711437
            ],
            [
              57.47724433102292,
              -20.465232102344682
            ],
            [
              57.47733829959316,
              -20.463315559152456
            ],
            [
              57.47763113910602,
              -20.461416924323377
            ],
            [
              57.47812002220828,
              -20.45955448191308
            ],
            [
              57.478800234061026,
              -20.457746166791214
            ],
            [
              57.47966521800044,
              -20.456009391975496
            ],
            [
              57.48070663890653,
              -20.454360881013667
            ],
            [
              57.48191446366078,
              -20.452816507024373
            ],
            [
              57.4832770579109,
              -20.451391139943464
            ],
            [
              57.4847812982054,
              -20.450098503442362
            ],
            [
              57.48641269841467,
              -20.44895104289184
            ],
            [
              57.48815554921974,
              -20.447959805637584
            ],
            [
              57.48999306932623,
              -20.44713433473583
            ],
            [
              57.4919075669501,
              -20.44648257716719
            ],
            [
              57.49388061002485,
              -20.446010807408598
            ],
            [
              57.49589320349782,
              -20.445723567094817
            ],
            [
              57.497925972016176,
              -20.445623621347703
            ],
            [
              57.49995934625275,
              -20.44571193219096
            ],
            [
              57.50197375108771,
              -20.445987649304815
            ],
            [
              57.50394979384425,
              -20.446448118208867
            ],
            [
              57.50586845077683,
              -20.447088905794637
            ],
            [
              57.507711250025864,
              -20.447903842962894
            ],
            [
              57.50946044928716,
              -20.448885083957652
            ],
            [
              57.511099206493405,
              -20.450023181827895
            ],
            [
              57.51261174187106,
              -20.451307179294457
            ],
            [
              57.513983489817576,
              -20.452724714150982
            ],
            [
              57.515201239139714,
              -20.454262138188657
            ],
            [
              57.5162532603037,
              -20.455904648504458
            ],
            [
              57.51712941847116,
              -20.457636429933306
            ],
            [
              57.517821271229494,
              -20.45944080723738
            ],
            [
              57.51832215007034,
              -20.461300405591484
            ],
            [
              57.518627224825394,
              -20.46319731782291
            ],
            [
              57.518733550430255,
              -20.46511327679892
            ]
          ]
        ]
      }
    },
    {
      "id": "9",
      "type": "Feature",
      "properties": {
        "name": "Port Louis",
        "id": "604c4c55-5a6f-411f-a9f8-664fd26922a6",
        "cases": 863,
        "intensity": "High",
        "color": "#FFA500",
        "label": "Port Louis: 863 cases",
        "radius": 3818.9920136077794,
        "layerName": "District Case Volume (Graduated Symbols)"
      },
      "geometry": {
        "type": "Polygon",
        "coordinates": [
          [
            [
              57.55377402287708,
              -20.16807806781588
            ],
            [
              57.55360997918123,
              -20.171461071322852
            ],
            [
              57.55309553860399,
              -20.174812600233846
            ],
            [
              57.552235633561345,
              -20.178100375014097
            ],
            [
              57.55103852504638,
              -20.181292728162358
            ],
            [
              57.54951572385594,
              -20.18435890935526
            ],
            [
              57.54768188043004,
              -20.187269381827644
            ],
            [
              57.54555464433828,
              -20.18999610712565
            ],
            [
              57.54315449474375,
              -20.192512815478818
            ],
            [
              57.540504543460266,
              -20.19479525917392
            ],
            [
              57.53763031248829,
              -20.196821446475933
            ],
            [
              57.534559488167496,
              -20.19857185382749
            ],
            [
              57.531321654315555,
              -20.200029614267773
            ],
            [
              57.52794800693188,
              -20.201180680240515
            ],
            [
              57.52447105322853,
              -20.20201395920927
            ],
            [
              57.52092429790781,
              -20.20252142076059
            ],
            [
              57.51734191973292,
              -20.20269817415325
            ],
            [
              57.51375844153615,
              -20.20254251555828
            ],
            [
              57.51020839687477,
              -20.20205594452945
            ],
            [
              57.50672599657855,
              -20.201243149543178
            ],
            [
              57.5033447984342,
              -20.200111962747854
            ],
            [
              57.50009738322052,
              -20.19867328436227
            ],
            [
              57.49701504024473,
              -20.196940977457924
            ],
            [
              57.494127465435035,
              -20.194931734148025
            ],
            [
              57.49146247491923,
              -20.192664914483657
            ],
            [
              57.489045736864334,
              -20.19016235962211
            ],
            [
              57.486900524170174,
              -20.187448181081717
            ],
            [
              57.48504749040299,
              -20.184548528128317
            ],
            [
              57.48350447112372,
              -20.181491335549207
            ],
            [
              57.48228631251558,
              -20.17830605425903
            ],
            [
              57.48140472894562,
              -20.175023367345947
            ],
            [
              57.48086819081123,
              -20.171674894305276
            ],
            [
              57.480681843726025,
              -20.16829288631933
            ],
            [
              57.480847459793885,
              -20.164909915525918
            ],
            [
              57.481363421408595,
              -20.161558561273107
            ],
            [
              57.48222473770161,
              -20.15827109638364
            ],
            [
              57.4834230934463,
              -20.155079176449853
            ],
            [
              57.484946929915516,
              -20.152013535146953
            ],
            [
              57.48678155688405,
              -20.14910368849245
            ],
            [
              57.48890929467116,
              -20.1463776508904
            ],
            [
              57.49130964483382,
              -20.143861665683513
            ],
            [
              57.49395948785047,
              -20.141579952794892
            ],
            [
              57.49683330588119,
              -20.139554475875094
            ],
            [
              57.49990342845537,
              -20.137804731181866
            ],
            [
              57.503140298723,
              -20.13634756021045
            ],
            [
              57.50651275771471,
              -20.135196987864095
            ],
            [
              57.50998834388764,
              -20.13436408770947
            ],
            [
              57.51353360509296,
              -20.133856875602365
            ],
            [
              57.51711441998555,
              -20.133680232698
            ],
            [
              57.52069632580924,
              -20.13383585857934
            ],
            [
              57.52424484943222,
              -20.13432225494978
            ],
            [
              57.52772583847744,
              -20.135134740044933
            ],
            [
              57.5311057893918,
              -20.136265493625377
            ],
            [
              57.53435216932688,
              -20.137703632120555
            ],
            [
              57.53743372876062,
              -20.13943531320666
            ],
            [
              57.540320801875836,
              -20.14144386882035
            ],
            [
              57.542985591824554,
              -20.14370996533835
            ],
            [
              57.54540243814739,
              -20.146211789393476
            ],
            [
              57.54754806378373,
              -20.14892525755186
            ],
            [
              57.54940179929817,
              -20.15182424784726
            ],
            [
              57.55094578216199,
              -20.154880850957912
            ],
            [
              57.55216512916193,
              -20.158065638622098
            ],
            [
              57.55304808026173,
              -20.16134794672142
            ],
            [
              57.55358611251064,
              -20.164696170318116
            ],
            [
              57.55377402287708,
              -20.16807806781588
            ]
          ]
        ]
      }
    },
    {
      "id": "10",
      "type": "Feature",
      "properties": {
        "name": "Grand Port",
        "id": "6ed8d4f2-7353-47a3-8fad-856f4f8c745f",
        "cases": 157,
        "intensity": "Low",
        "color": "#FFFF00",
        "label": "Grand Port: 157 cases",
        "radius": 1628.895331198417,
        "layerName": "District Case Volume (Graduated Symbols)"
      },
      "geometry": {
        "type": "Polygon",
        "coordinates": [
          [
            [
              57.66720420902122,
              -20.394824088858467
            ],
            [
              57.6671352512727,
              -20.396267007910485
            ],
            [
              57.66691662054312,
              -20.397696605770125
            ],
            [
              57.66655041831629,
              -20.399099114192655
            ],
            [
              57.66604016755495,
              -20.400461025458416
            ],
            [
              57.6653907789175,
              -20.401769222490195
            ],
            [
              57.66460850359418,
              -20.40301110522096
            ],
            [
              57.66370087321153,
              -20.404174711993786
            ],
            [
              57.66267662738017,
              -20.405248834822473
            ],
            [
              57.661545629580296,
              -20.406223127400384
            ],
            [
              57.660318772192916,
              -20.40708820481484
            ],
            [
              57.659007871590724,
              -20.4078357340037
            ],
            [
              57.65762555429904,
              -20.408458514080202
            ],
            [
              57.656185135324975,
              -20.408950545749697
            ],
            [
              57.65470048982908,
              -20.40930708914709
            ],
            [
              57.65318591937932,
              -20.409524709535596
            ],
            [
              57.65165601407978,
              -20.409601310424772
            ],
            [
              57.65012551190754,
              -20.409536153787343
            ],
            [
              57.64860915661808,
              -20.4093298671791
            ],
            [
              57.64712155559386,
              -20.408984437692755
            ],
            [
              57.645677039011304,
              -20.40850319280426
            ],
            [
              57.644289521688535,
              -20.407890768296433
            ],
            [
              57.642972368949785,
              -20.40715306357028
            ],
            [
              57.641738267803355,
              -20.40629718477588
            ],
            [
              57.640599104677875,
              -20.405331376312702
            ],
            [
              57.63956585089721,
              -20.404264941361504
            ],
            [
              57.638648456999334,
              -20.403108152215818
            ],
            [
              57.637855756917276,
              -20.401872151279452
            ],
            [
              57.63719538294507,
              -20.40056884368623
            ],
            [
              57.63667369230547,
              -20.399210782579143
            ],
            [
              57.636295706024285,
              -20.397811048155983
            ],
            [
              57.636065060696005,
              -20.396383121649073
            ],
            [
              57.63598397360074,
              -20.39494075545429
            ],
            [
              57.63605322150283,
              -20.393497840661883
            ],
            [
              57.6362721333297,
              -20.39206827326574
            ],
            [
              57.63663859679517,
              -20.39066582033988
            ],
            [
              57.637149078897245,
              -20.389303987471255
            ],
            [
              57.6377986600872,
              -20.387995888724337
            ],
            [
              57.63858108177514,
              -20.38675412038913
            ],
            [
              57.63948880670981,
              -20.385590639726377
            ],
            [
              57.640513091646994,
              -20.384516649875962
            ],
            [
              57.641644071603686,
              -20.383542492034234
            ],
            [
              57.64287085488458,
              -20.382677545936037
            ],
            [
              57.64418162796484,
              -20.38193013959709
            ],
            [
              57.64556376921976,
              -20.381307469183128
            ],
            [
              57.647003970407226,
              -20.3808155297745
            ],
            [
              57.648488364736075,
              -20.38045905769078
            ],
            [
              57.65000266029058,
              -20.380241484928217
            ],
            [
              57.6515322775307,
              -20.380164906146994
            ],
            [
              57.65306248954935,
              -20.380230058524806
            ],
            [
              57.65457856374146,
              -20.38043631466956
            ],
            [
              57.65606590352703,
              -20.38078168865922
            ],
            [
              57.657510188768846,
              -20.381262855150556
            ],
            [
              57.6588975135391,
              -20.3818751813735
            ],
            [
              57.66021451991326,
              -20.382612771704096
            ],
            [
              57.66144852650769,
              -20.383468524388412
            ],
            [
              57.662587650527385,
              -20.384434199873315
            ],
            [
              57.66362092215126,
              -20.38550050008834
            ],
            [
              57.66453839015567,
              -20.38665715791777
            ],
            [
              57.665331217759665,
              -20.387893036004225
            ],
            [
              57.66599176776865,
              -20.389196233934925
            ],
            [
              57.66651367619486,
              -20.390554202781164
            ],
            [
              57.66689191364307,
              -20.39195386589066
            ],
            [
              57.66712283386657,
              -20.393381744771634
            ],
            [
              57.66720420902122,
              -20.394824088858467
            ]
          ]
        ]
      }
    },
    {
      "id": "11",
      "type": "Feature",
      "properties": {
        "name": "Plaines Wilhems",
        "id": "be77099e-1834-49b5-bcb1-13b799ad3a38",
        "cases": 3779,
        "intensity": "Very High",
        "color": "#FF0000",
        "label": "Plaines Wilhems: 3779 cases",
        "radius": 7991.564302437915,
        "layerName": "District Case Volume (Graduated Symbols)"
      },
      "geometry": {
        "type": "Polygon",
        "coordinates": [
          [
            [
              57.575034046713085,
              -20.318861049236475
            ],
            [
              57.57469158138218,
              -20.325940174728107
            ],
            [
              57.573615118153384,
              -20.33295353969132
            ],
            [
              57.57181492697087,
              -20.33983359071029
            ],
            [
              57.569308254540736,
              -20.346514049608878
            ],
            [
              57.56611916171705,
              -20.352930552483116
            ],
            [
              57.562278294871625,
              -20.359021270605922
            ],
            [
              57.55782259332841,
              -20.364727507185215
            ],
            [
              57.552794935579115,
              -20.36999426417798
            ],
            [
              57.54724372760895,
              -20.374770773642865
            ],
            [
              57.54122243724674,
              -20.379010988448456
            ],
            [
              57.534789079001115,
              -20.382674027541988
            ],
            [
              57.52800565435233,
              -20.38572457141967
            ],
            [
              57.520937552927194,
              -20.388133203920773
            ],
            [
              57.51365292038996,
              -20.389876696989067
            ],
            [
              57.50622199922854,
              -20.390938235601247
            ],
            [
              57.498716448898534,
              -20.39130758064778
            ],
            [
              57.491208652003934,
              -20.3909811681602
            ],
            [
              57.48377101334106,
              -20.389962143904764
            ],
            [
              57.476475258707225,
              -20.38826033299873
            ],
            [
              57.46939174037888,
              -20.38589214484549
            ],
            [
              57.46258875609496,
              -20.38288041432168
            ],
            [
              57.45613188823944,
              -20.379254180776776
            ],
            [
              57.450083369706554,
              -20.375048407016653
            ],
            [
              57.44450148265408,
              -20.37030364103074
            ],
            [
              57.439439996008154,
              -20.36506562378209
            ],
            [
              57.43494764718252,
              -20.35938484690476
            ],
            [
              57.43106767301951,
              -20.353316064638033
            ],
            [
              57.42783739445644,
              -20.346917764768186
            ],
            [
              57.42528785887414,
              -20.340251603740448
            ],
            [
              57.42344354350197,
              -20.33338181144356
            ],
            [
              57.42232212264024,
              -20.326374571453883
            ],
            [
              57.42193430082715,
              -20.319297382752445
            ],
            [
              57.4222837134246,
              -20.31221840909543
            ],
            [
              57.423366895438676,
              -20.30520582232486
            ],
            [
              57.425173318727076,
              -20.2983271459513
            ],
            [
              57.42768549708807,
              -20.291648605324394
            ],
            [
              57.430879158078035,
              -20.285234490630444
            ],
            [
              57.43472347977291,
              -20.27914653882055
            ],
            [
              57.43918139008013,
              -20.27344334037936
            ],
            [
              57.44420992562552,
              -20.268179776596167
            ],
            [
              57.44976064668944,
              -20.263406492699218
            ],
            [
              57.455780104153455,
              -20.25916941186308
            ],
            [
              57.46221035394511,
              -20.2555092947036
            ],
            [
              57.468989514039606,
              -20.252461348435904
            ],
            [
              57.476052358694304,
              -20.25005488939559
            ],
            [
              57.483330944259876,
              -20.248313062113578
            ],
            [
              57.49075526063076,
              -20.247252617597518
            ],
            [
              57.49825390217076,
              -20.246883752911184
            ],
            [
              57.50575475177794,
              -20.24721001356296
            ],
            [
              57.51318567163755,
              -20.248228259621623
            ],
            [
              57.52047519415315,
              -20.249928695875813
            ],
            [
              57.52755320654578,
              -20.252294965749606
            ],
            [
              57.534351622666804,
              -20.255304308085194
            ],
            [
              57.540805035684016,
              -20.25892777531032
            ],
            [
              57.54685134547002,
              -20.263130510927596
            ],
            [
              57.552432354746976,
              -20.267872083701988
            ],
            [
              57.557494328320004,
              -20.273106875383885
            ],
            [
              57.56198851006183,
              -20.278784518295875
            ],
            [
              57.56587159269117,
              -20.284850378635
            ],
            [
              57.569106135813385,
              -20.291246080902628
            ],
            [
              57.57166092816271,
              -20.297910068477485
            ],
            [
              57.57351129049544,
              -20.304778194994974
            ],
            [
              57.574639316130536,
              -20.311784340893286
            ],
            [
              57.575034046713085,
              -20.318861049236475
            ]
          ]
        ]
      }
    }
  ]
}