{
  "type": "FeatureCollection",
  "features": [
    {
      "id": "3",
      "type": "Feature",
      "properties": {
        "name": "Black River",
        "id": "64631a5f-d907-40c0-81ac-0b4323a3248c",
        "cases": 857,
        "intensity": "High",
        "color": "#FFA500",
        "layerName": "High & Moderate Risk - Orange"
      },
      "geometry": {
        "type": "MultiPolygon",
        "coordinates": [
          [
            [
              [
                57.3367419,
                -20.4731721
              ],
              [
                57.3379925,
                -20.4728455
              ],
              [
                57.3382848,
                -20.469712
              ],
              [
                57.3369035,
                -20.4684028
              ],
              [
                57.336123,
                -20.4718077
              ],
              [
                57.3367419,
                -20.4731721
              ]
            ]
          ],
          [
            [
              [
                57.3414028,
                -20.4200848
              ],
              [
                57.3408048,
                -20.4285272
              ],
              [
                57.3417469,
                -20.4283606
              ],
              [
                57.3483619,
                -20.4171179
              ],
              [
                57.3506559,
                -20.4135839
              ],
              [
                57.3465085,
                -20.4137583
              ],
              [
                57.3419555,
                -20.4178482
              ],
              [
                57.3414028,
                -20.4200848
              ]
            ]
          ],
          [
            [
              [
                57.4560282,
                -20.2646193
              ],
              [
                57.4521339,
                -20.2595299
              ],
              [
                57.4481567,
                -20.2282046
              ],
              [
                57.4494326,
                -20.2062111
              ],
              [
                57.4519947,
                -20.2012705
              ],
              [
                57.4581953,
                -20.1988472
              ],
              [
                57.4660248,
                -20.1884274
              ],
              [
                57.4690031,
                -20.1863335
              ],
              [
                57.4691422,
                -20.175769
              ],
              [
                57.4709825,
                -20.1665301
              ],
              [
                57.4677428,
                -20.1643339
              ],
              [
                57.4626519,
                -20.1647426
              ],
              [
                57.4591653,
                -20.1663597
              ],
              [
                57.4506348,
                -20.1694984
              ],
              [
                57.4413726,
                -20.1729761
              ],
              [
                57.4386679,
                -20.1739078
              ],
              [
                57.433392,
                -20.1745498
              ],
              [
                57.4311671,
                -20.1747311
              ],
              [
                57.4276775,
                -20.1792426
              ],
              [
                57.4265407,
                -20.1790552
              ],
              [
                57.4258617,
                -20.1805342
              ],
              [
                57.4244696,
                -20.1813171
              ],
              [
                57.4234879,
                -20.1841594
              ],
              [
                57.4219537,
                -20.1852495
              ],
              [
                57.4185768,
                -20.1876486
              ],
              [
                57.4134299,
                -20.1895342
              ],
              [
                57.4112168,
                -20.1914247
              ],
              [
                57.4061407,
                -20.1972561
              ],
              [
                57.402674,
                -20.1998929
              ],
              [
                57.4028242,
                -20.2022742
              ],
              [
                57.4046803,
                -20.2062727
              ],
              [
                57.4012068,
                -20.2167323
              ],
              [
                57.4001765,
                -20.2169508
              ],
              [
                57.3989135,
                -20.2163132
              ],
              [
                57.3940292,
                -20.2164152
              ],
              [
                57.3870227,
                -20.2267332
              ],
              [
                57.3857948,
                -20.2321341
              ],
              [
                57.3844779,
                -20.2357669
              ],
              [
                57.383751,
                -20.2392172
              ],
              [
                57.3810875,
                -20.241759
              ],
              [
                57.3835793,
                -20.2493588
              ],
              [
                57.3794943,
                -20.2563493
              ],
              [
                57.3783248,
                -20.2611418
              ],
              [
                57.3756695,
                -20.2637672
              ],
              [
                57.3728204,
                -20.2703205
              ],
              [
                57.370681,
                -20.2714731
              ],
              [
                57.3705878,
                -20.2742745
              ],
              [
                57.3681829,
                -20.2751401
              ],
              [
                57.3640402,
                -20.2834272
              ],
              [
                57.362933,
                -20.2974379
              ],
              [
                57.3667629,
                -20.3121137
              ],
              [
                57.3673039,
                -20.3151501
              ],
              [
                57.3705465,
                -20.3168223
              ],
              [
                57.3739234,
                -20.3186698
              ],
              [
                57.3743458,
                -20.3196231
              ],
              [
                57.3775005,
                -20.3204753
              ],
              [
                57.3790856,
                -20.3229603
              ],
              [
                57.3780634,
                -20.3255657
              ],
              [
                57.3718041,
                -20.3300623
              ],
              [
                57.3657534,
                -20.3335296
              ],
              [
                57.362925,
                -20.3422026
              ],
              [
                57.3623269,
                -20.350064
              ],
              [
                57.3604634,
                -20.3541451
              ],
              [
                57.3655884,
                -20.3596439
              ],
              [
                57.3688808,
                -20.3600257
              ],
              [
                57.3713795,
                -20.3631341
              ],
              [
                57.3715496,
                -20.3665439
              ],
              [
                57.3757995,
                -20.3646521
              ],
              [
                57.3759761,
                -20.3657545
              ],
              [
                57.3746022,
                -20.3657939
              ],
              [
                57.3776908,
                -20.3673104
              ],
              [
                57.375534,
                -20.367121
              ],
              [
                57.3723422,
                -20.3693149
              ],
              [
                57.3711524,
                -20.368825
              ],
              [
                57.3708415,
                -20.3683141
              ],
              [
                57.3715362,
                -20.3676616
              ],
              [
                57.3705575,
                -20.367555
              ],
              [
                57.3698492,
                -20.3681386
              ],
              [
                57.3701802,
                -20.3687841
              ],
              [
                57.3695046,
                -20.3688194
              ],
              [
                57.3670792,
                -20.3690548
              ],
              [
                57.3596567,
                -20.3718947
              ],
              [
                57.358954,
                -20.3790871
              ],
              [
                57.3611426,
                -20.3822172
              ],
              [
                57.3616142,
                -20.3811623
              ],
              [
                57.3639009,
                -20.3821042
              ],
              [
                57.3632135,
                -20.3835685
              ],
              [
                57.3640503,
                -20.3833731
              ],
              [
                57.3705738,
                -20.3828998
              ],
              [
                57.3719506,
                -20.3845519
              ],
              [
                57.375007,
                -20.3864816
              ],
              [
                57.3778501,
                -20.3867116
              ],
              [
                57.3784478,
                -20.3873258
              ],
              [
                57.3770763,
                -20.3882792
              ],
              [
                57.3767272,
                -20.3887805
              ],
              [
                57.3768012,
                -20.3895158
              ],
              [
                57.3756024,
                -20.3904024
              ],
              [
                57.3762596,
                -20.3911353
              ],
              [
                57.3791526,
                -20.3906884
              ],
              [
                57.3787808,
                -20.3912045
              ],
              [
                57.3782974,
                -20.3913221
              ],
              [
                57.3771942,
                -20.3917293
              ],
              [
                57.3757231,
                -20.3939074
              ],
              [
                57.3694041,
                -20.3946081
              ],
              [
                57.3672809,
                -20.3963973
              ],
              [
                57.3701656,
                -20.4009477
              ],
              [
                57.3691048,
                -20.4020613
              ],
              [
                57.3688768,
                -20.4059818
              ],
              [
                57.3693754,
                -20.4102947
              ],
              [
                57.3668783,
                -20.4109609
              ],
              [
                57.3666362,
                -20.4117421
              ],
              [
                57.3675585,
                -20.415171
              ],
              [
                57.3654476,
                -20.4168716
              ],
              [
                57.3638825,
                -20.4173039
              ],
              [
                57.363735,
                -20.4188989
              ],
              [
                57.3642485,
                -20.4192427
              ],
              [
                57.3618159,
                -20.4231721
              ],
              [
                57.3598941,
                -20.4253162
              ],
              [
                57.3595538,
                -20.4273293
              ],
              [
                57.357464,
                -20.4285109
              ],
              [
                57.3569222,
                -20.4303181
              ],
              [
                57.3536959,
                -20.4325574
              ],
              [
                57.3524124,
                -20.4363866
              ],
              [
                57.3487847,
                -20.4388446
              ],
              [
                57.3486409,
                -20.4392998
              ],
              [
                57.3469876,
                -20.4408189
              ],
              [
                57.3464173,
                -20.4430421
              ],
              [
                57.3450695,
                -20.443913
              ],
              [
                57.3436761,
                -20.4449208
              ],
              [
                57.339975,
                -20.4447045
              ],
              [
                57.3365203,
                -20.4433297
              ],
              [
                57.3313084,
                -20.4426978
              ],
              [
                57.3252627,
                -20.4424402
              ],
              [
                57.3222211,
                -20.4423371
              ],
              [
                57.3229185,
                -20.437499
              ],
              [
                57.3248832,
                -20.4360902
              ],
              [
                57.3257992,
                -20.4352168
              ],
              [
                57.323703,
                -20.4344502
              ],
              [
                57.3228426,
                -20.4327724
              ],
              [
                57.3211415,
                -20.4345068
              ],
              [
                57.3207392,
                -20.4350849
              ],
              [
                57.3182008,
                -20.4400448
              ],
              [
                57.3167816,
                -20.4429906
              ],
              [
                57.3158134,
                -20.4446144
              ],
              [
                57.3095799,
                -20.4593943
              ],
              [
                57.3088956,
                -20.4618374
              ],
              [
                57.3084938,
                -20.4667028
              ],
              [
                57.3150113,
                -20.4683325
              ],
              [
                57.3182503,
                -20.46429
              ],
              [
                57.3213752,
                -20.4596324
              ],
              [
                57.32721,
                -20.4602735
              ],
              [
                57.3323143,
                -20.460046
              ],
              [
                57.3350233,
                -20.4606353
              ],
              [
                57.3343822,
                -20.4601214
              ],
              [
                57.3361176,
                -20.4600096
              ],
              [
                57.3366437,
                -20.4601979
              ],
              [
                57.3381069,
                -20.4604844
              ],
              [
                57.3384609,
                -20.4609367
              ],
              [
                57.3389974,
                -20.4608362
              ],
              [
                57.3402147,
                -20.4628166
              ],
              [
                57.3411914,
                -20.4627964
              ],
              [
                57.3406452,
                -20.4633355
              ],
              [
                57.3401973,
                -20.4639776
              ],
              [
                57.3365186,
                -20.4626068
              ],
              [
                57.3356873,
                -20.4627437
              ],
              [
                57.3414499,
                -20.4656575
              ],
              [
                57.3462738,
                -20.473671
              ],
              [
                57.3489951,
                -20.4781029
              ],
              [
                57.3531872,
                -20.4804214
              ],
              [
                57.3536351,
                -20.4821551
              ],
              [
                57.3532209,
                -20.4848468
              ],
              [
                57.354707,
                -20.486678
              ],
              [
                57.3608811,
                -20.4887444
              ],
              [
                57.3658604,
                -20.48831
              ],
              [
                57.3694269,
                -20.4868835
              ],
              [
                57.3708401,
                -20.4851041
              ],
              [
                57.3729376,
                -20.4857482
              ],
              [
                57.3729685,
                -20.4822443
              ],
              [
                57.3738391,
                -20.4799141
              ],
              [
                57.3739912,
                -20.4769355
              ],
              [
                57.3767503,
                -20.4781294
              ],
              [
                57.3793692,
                -20.4794642
              ],
              [
                57.380355,
                -20.4786002
              ],
              [
                57.3806027,
                -20.4763952
              ],
              [
                57.382388,
                -20.4750122
              ],
              [
                57.3837613,
                -20.4723748
              ],
              [
                57.3853492,
                -20.4713857
              ],
              [
                57.3842935,
                -20.4695041
              ],
              [
                57.382594,
                -20.4689493
              ],
              [
                57.381667,
                -20.4695041
              ],
              [
                57.3775729,
                -20.4645588
              ],
              [
                57.3801221,
                -20.4628861
              ],
              [
                57.3781909,
                -20.459565
              ],
              [
                57.3789376,
                -20.4574581
              ],
              [
                57.3776073,
                -20.4571686
              ],
              [
                57.3749808,
                -20.4566619
              ],
              [
                57.3770665,
                -20.4525606
              ],
              [
                57.3762168,
                -20.4497941
              ],
              [
                57.3783626,
                -20.449215
              ],
              [
                57.3803968,
                -20.4468265
              ],
              [
                57.3827142,
                -20.447494
              ],
              [
                57.3847025,
                -20.4462217
              ],
              [
                57.384694,
                -20.4443768
              ],
              [
                57.3859833,
                -20.4430526
              ],
              [
                57.3874349,
                -20.443891
              ],
              [
                57.3887137,
                -20.4431189
              ],
              [
                57.3885764,
                -20.4414863
              ],
              [
                57.39084,
                -20.441274
              ],
              [
                57.3918061,
                -20.4432678
              ],
              [
                57.3937583,
                -20.4429227
              ],
              [
                57.3949331,
                -20.4443754
              ],
              [
                57.4003082,
                -20.4449736
              ],
              [
                57.4016118,
                -20.4426111
              ],
              [
                57.4023682,
                -20.4414449
              ],
              [
                57.4019819,
                -20.4406356
              ],
              [
                57.4052542,
                -20.4397007
              ],
              [
                57.4078453,
                -20.4379011
              ],
              [
                57.4090362,
                -20.4345784
              ],
              [
                57.4107313,
                -20.4321605
              ],
              [
                57.4132311,
                -20.431889
              ],
              [
                57.4135852,
                -20.4299989
              ],
              [
                57.4183917,
                -20.4284556
              ],
              [
                57.420662,
                -20.4250627
              ],
              [
                57.4204891,
                -20.421657
              ],
              [
                57.4259087,
                -20.4220148
              ],
              [
                57.4299903,
                -20.4224787
              ],
              [
                57.4333145,
                -20.4210687
              ],
              [
                57.4355546,
                -20.4177997
              ],
              [
                57.4359611,
                -20.418135
              ],
              [
                57.437193,
                -20.4162757
              ],
              [
                57.4396404,
                -20.4172129
              ],
              [
                57.4425147,
                -20.4162414
              ],
              [
                57.4499667,
                -20.4139515
              ],
              [
                57.4510969,
                -20.4140277
              ],
              [
                57.4555364,
                -20.4172091
              ],
              [
                57.4587969,
                -20.4174911
              ],
              [
                57.4590815,
                -20.4220707
              ],
              [
                57.4614638,
                -20.4219031
              ],
              [
                57.4657917,
                -20.4167974
              ],
              [
                57.465502,
                -20.4156813
              ],
              [
                57.4683666,
                -20.4151786
              ],
              [
                57.4658883,
                -20.4120515
              ],
              [
                57.4647939,
                -20.4104024
              ],
              [
                57.4631309,
                -20.4067825
              ],
              [
                57.4633777,
                -20.4037457
              ],
              [
                57.4615458,
                -20.401727
              ],
              [
                57.4532872,
                -20.4013222
              ],
              [
                57.4489582,
                -20.3987831
              ],
              [
                57.4475808,
                -20.3977712
              ],
              [
                57.4405071,
                -20.3948651
              ],
              [
                57.4371099,
                -20.3947417
              ],
              [
                57.4383496,
                -20.3918623
              ],
              [
                57.4421043,
                -20.3921687
              ],
              [
                57.4440283,
                -20.3911269
              ],
              [
                57.4479278,
                -20.3920724
              ],
              [
                57.449226,
                -20.3894591
              ],
              [
                57.4504309,
                -20.3857295
              ],
              [
                57.4506971,
                -20.383637
              ],
              [
                57.4477316,
                -20.3817109
              ],
              [
                57.4429563,
                -20.3787537
              ],
              [
                57.4399338,
                -20.3731003
              ],
              [
                57.4375413,
                -20.3717864
              ],
              [
                57.4402382,
                -20.3672144
              ],
              [
                57.438143,
                -20.3645998
              ],
              [
                57.4408219,
                -20.362959
              ],
              [
                57.4422285,
                -20.3586594
              ],
              [
                57.4397957,
                -20.3553953
              ],
              [
                57.4416196,
                -20.3543542
              ],
              [
                57.4446452,
                -20.3514421
              ],
              [
                57.4452621,
                -20.3498427
              ],
              [
                57.4440873,
                -20.3484596
              ],
              [
                57.4503525,
                -20.3444461
              ],
              [
                57.4531337,
                -20.3454222
              ],
              [
                57.4561747,
                -20.3449114
              ],
              [
                57.4575407,
                -20.3472976
              ],
              [
                57.4620371,
                -20.3468174
              ],
              [
                57.4634315,
                -20.3473624
              ],
              [
                57.463222,
                -20.3511915
              ],
              [
                57.4648568,
                -20.3515065
              ],
              [
                57.469748,
                -20.3468874
              ],
              [
                57.4698613,
                -20.3421222
              ],
              [
                57.4688066,
                -20.3400382
              ],
              [
                57.4665273,
                -20.3375028
              ],
              [
                57.4626908,
                -20.3371709
              ],
              [
                57.4614096,
                -20.3383258
              ],
              [
                57.4595689,
                -20.3364036
              ],
              [
                57.4600988,
                -20.3341791
              ],
              [
                57.4587762,
                -20.3318461
              ],
              [
                57.4539727,
                -20.3264292
              ],
              [
                57.4541968,
                -20.3246926
              ],
              [
                57.4567034,
                -20.3223682
              ],
              [
                57.4589095,
                -20.3204902
              ],
              [
                57.4559332,
                -20.3138331
              ],
              [
                57.45239,
                -20.3108917
              ],
              [
                57.4494635,
                -20.3103596
              ],
              [
                57.4560282,
                -20.2646193
              ]
            ],
            [
              [
                57.3757995,
                -20.3646521
              ],
              [
                57.3761665,
                -20.3629472
              ],
              [
                57.3765964,
                -20.3634823
              ],
              [
                57.3768657,
                -20.3638974
              ],
              [
                57.3766025,
                -20.3642734
              ],
              [
                57.3777515,
                -20.3648109
              ],
              [
                57.3767153,
                -20.3651838
              ],
              [
                57.3757995,
                -20.3646521
              ]
            ]
          ]
        ]
      }
    },
    {
      "id": "8",
      "type": "Feature",
      "properties": {
        "name": "Savanne",
        "id": "b2d44092-06b3-49e5-8129-1bbdcd480038",
        "cases": 277,
        "intensity": "Moderate",
        "color": "#FFA500",
        "layerName": "High & Moderate Risk - Orange"
      },
      "geometry": {
        "type": "Polygon",
        "coordinates": [
          [
            [
              57.6009428,
              -20.5008275
            ],
            [
              57.6032495,
              -20.5019208
            ],
            [
              57.6070958,
              -20.5024685
            ],
            [
              57.6087615,
              -20.5009862
            ],
            [
              57.6116073,
              -20.500735
            ],
            [
              57.614893,
              -20.499813
            ],
            [
              57.6179255,
              -20.4976067
            ],
            [
              57.6222503,
              -20.4973307
            ],
            [
              57.6227894,
              -20.4966197
            ],
            [
              57.6226526,
              -20.4936224
            ],
            [
              57.6220911,
              -20.4919916
            ],
            [
              57.6217478,
              -20.4890269
            ],
            [
              57.619205,
              -20.4886249
            ],
            [
              57.6197844,
              -20.4875193
            ],
            [
              57.6202994,
              -20.4879414
            ],
            [
              57.6211684,
              -20.4870068
            ],
            [
              57.6200311,
              -20.4853786
            ],
            [
              57.6201492,
              -20.4843434
            ],
            [
              57.6174991,
              -20.48366
            ],
            [
              57.6190226,
              -20.483067
            ],
            [
              57.6177352,
              -20.4807252
            ],
            [
              57.6167696,
              -20.4802227
            ],
            [
              57.6156752,
              -20.4786849
            ],
            [
              57.6135616,
              -20.4790669
            ],
            [
              57.6133471,
              -20.4784035
            ],
            [
              57.6148813,
              -20.4776296
            ],
            [
              57.6130252,
              -20.4755993
            ],
            [
              57.6111106,
              -20.474953
            ],
            [
              57.6115282,
              -20.4741175
            ],
            [
              57.6129297,
              -20.4736334
            ],
            [
              57.6128483,
              -20.4718164
            ],
            [
              57.6106823,
              -20.4710107
            ],
            [
              57.6128306,
              -20.4689616
            ],
            [
              57.6116733,
              -20.4680299
            ],
            [
              57.6094047,
              -20.4688356
            ],
            [
              57.6077129,
              -20.4660537
            ],
            [
              57.6063256,
              -20.4650656
            ],
            [
              57.6068352,
              -20.4633944
            ],
            [
              57.6052178,
              -20.4643759
            ],
            [
              57.6043027,
              -20.4654575
            ],
            [
              57.6033478,
              -20.4644322
            ],
            [
              57.6037555,
              -20.4614368
            ],
            [
              57.5999253,
              -20.4605321
            ],
            [
              57.6015883,
              -20.4594666
            ],
            [
              57.5977581,
              -20.4566218
            ],
            [
              57.5956767,
              -20.4562097
            ],
            [
              57.5959127,
              -20.4549331
            ],
            [
              57.5936167,
              -20.4534855
            ],
            [
              57.5931876,
              -20.4511433
            ],
            [
              57.5926833,
              -20.4508316
            ],
            [
              57.5920074,
              -20.4532141
            ],
            [
              57.5892179,
              -20.4491629
            ],
            [
              57.5890892,
              -20.448238
            ],
            [
              57.5878661,
              -20.4482883
            ],
            [
              57.5866215,
              -20.449555
            ],
            [
              57.586128,
              -20.4473936
            ],
            [
              57.5849693,
              -20.4479767
            ],
            [
              57.5822013,
              -20.444237
            ],
            [
              57.5796585,
              -20.4419047
            ],
            [
              57.5806563,
              -20.4411306
            ],
            [
              57.5795405,
              -20.4400347
            ],
            [
              57.5801521,
              -20.4360234
            ],
            [
              57.5779205,
              -20.4344048
            ],
            [
              57.5782423,
              -20.433128
            ],
            [
              57.5760429,
              -20.4319416
            ],
            [
              57.5763862,
              -20.4311976
            ],
            [
              57.5740044,
              -20.428111
            ],
            [
              57.5718372,
              -20.4266733
            ],
            [
              57.570936,
              -20.4243005
            ],
            [
              57.5695734,
              -20.4230336
            ],
            [
              57.5685864,
              -20.4231442
            ],
            [
              57.5669257,
              -20.4190861
            ],
            [
              57.5670746,
              -20.4178117
            ],
            [
              57.5661385,
              -20.4159126
            ],
            [
              57.5664242,
              -20.4140449
            ],
            [
              57.5641322,
              -20.4097777
            ],
            [
              57.5624907,
              -20.4094974
            ],
            [
              57.5620468,
              -20.4070313
            ],
            [
              57.562138,
              -20.4058875
            ],
            [
              57.5631639,
              -20.4049046
            ],
            [
              57.5617222,
              -20.403762
            ],
            [
              57.5539237,
              -20.404931
            ],
            [
              57.5485231,
              -20.4035911
            ],
            [
              57.5464511,
              -20.4042698
            ],
            [
              57.5452508,
              -20.4030041
            ],
            [
              57.545401,
              -20.4022222
            ],
            [
              57.5439607,
              -20.4028042
            ],
            [
              57.5423098,
              -20.4014228
            ],
            [
              57.5415198,
              -20.4022021
            ],
            [
              57.5405569,
              -20.4014743
            ],
            [
              57.5388966,
              -20.4016453
            ],
            [
              57.5373155,
              -20.4002714
            ],
            [
              57.5359985,
              -20.4018125
            ],
            [
              57.5313073,
              -20.4006849
            ],
            [
              57.5307669,
              -20.3989842
            ],
            [
              57.5295076,
              -20.3991024
            ],
            [
              57.5283864,
              -20.3994393
            ],
            [
              57.5275415,
              -20.3994267
            ],
            [
              57.5274906,
              -20.3999245
            ],
            [
              57.5266752,
              -20.3994418
            ],
            [
              57.5270748,
              -20.3990948
            ],
            [
              57.5250095,
              -20.3983205
            ],
            [
              57.5234431,
              -20.3993638
            ],
            [
              57.5225955,
              -20.398939
            ],
            [
              57.5219035,
              -20.3994594
            ],
            [
              57.5205114,
              -20.3983608
            ],
            [
              57.5173643,
              -20.3982688
            ],
            [
              57.5156921,
              -20.3982571
            ],
            [
              57.5159469,
              -20.399385
            ],
            [
              57.5141401,
              -20.3987348
            ],
            [
              57.5102373,
              -20.3988873
            ],
            [
              57.509904,
              -20.3973928
            ],
            [
              57.5088533,
              -20.39699
            ],
            [
              57.5093074,
              -20.396018
            ],
            [
              57.508819,
              -20.3959367
            ],
            [
              57.5079572,
              -20.3962054
            ],
            [
              57.5073874,
              -20.3948967
            ],
            [
              57.5036992,
              -20.39353
            ],
            [
              57.5014249,
              -20.3925999
            ],
            [
              57.4998301,
              -20.3914639
            ],
            [
              57.4993561,
              -20.3920111
            ],
            [
              57.4986696,
              -20.3913676
            ],
            [
              57.4971669,
              -20.3937397
            ],
            [
              57.4953799,
              -20.3925267
            ],
            [
              57.4927887,
              -20.3957352
            ],
            [
              57.4907881,
              -20.3986073
            ],
            [
              57.4881211,
              -20.3991712
            ],
            [
              57.4865234,
              -20.3994494
            ],
            [
              57.4851289,
              -20.4009926
            ],
            [
              57.4843077,
              -20.4013584
            ],
            [
              57.484576,
              -20.4032065
            ],
            [
              57.4840312,
              -20.407596
            ],
            [
              57.4829173,
              -20.4084267
            ],
            [
              57.4818522,
              -20.4098936
            ],
            [
              57.4824864,
              -20.41093
            ],
            [
              57.4816733,
              -20.4119245
            ],
            [
              57.4807829,
              -20.4140772
            ],
            [
              57.4828726,
              -20.4165538
            ],
            [
              57.4820188,
              -20.4183674
            ],
            [
              57.4814741,
              -20.4200209
            ],
            [
              57.4621363,
              -20.4211589
            ],
            [
              57.4595043,
              -20.4223298
            ],
            [
              57.4585855,
              -20.4204553
            ],
            [
              57.4587969,
              -20.4174911
            ],
            [
              57.4542354,
              -20.4166452
            ],
            [
              57.4504627,
              -20.4139401
            ],
            [
              57.4428968,
              -20.4157994
            ],
            [
              57.4411812,
              -20.4168853
            ],
            [
              57.4389737,
              -20.4170567
            ],
            [
              57.437193,
              -20.4162757
            ],
            [
              57.4359611,
              -20.418135
            ],
            [
              57.4351115,
              -20.418154
            ],
            [
              57.4323113,
              -20.4218047
            ],
            [
              57.4276366,
              -20.4224787
            ],
            [
              57.4218738,
              -20.4215421
            ],
            [
              57.4204891,
              -20.421657
            ],
            [
              57.420662,
              -20.4250627
            ],
            [
              57.4179143,
              -20.4286768
            ],
            [
              57.4151301,
              -20.4293655
            ],
            [
              57.4134135,
              -20.4305569
            ],
            [
              57.4132311,
              -20.431889
            ],
            [
              57.4103236,
              -20.4325878
            ],
            [
              57.4089342,
              -20.4350409
            ],
            [
              57.4074483,
              -20.4383485
            ],
            [
              57.4052542,
              -20.4397007
            ],
            [
              57.4019819,
              -20.4406356
            ],
            [
              57.402057,
              -20.441847
            ],
            [
              57.4003082,
              -20.4449736
            ],
            [
              57.3976099,
              -20.4444106
            ],
            [
              57.3949331,
              -20.4443754
            ],
            [
              57.3937583,
              -20.4429227
            ],
            [
              57.3913223,
              -20.4431763
            ],
            [
              57.39084,
              -20.441274
            ],
            [
              57.3885764,
              -20.4414863
            ],
            [
              57.3887137,
              -20.4431189
            ],
            [
              57.3874349,
              -20.443891
            ],
            [
              57.3859833,
              -20.4430526
            ],
            [
              57.3843543,
              -20.4449239
            ],
            [
              57.3847025,
              -20.4462217
            ],
            [
              57.3819074,
              -20.4473653
            ],
            [
              57.3803968,
              -20.4468265
            ],
            [
              57.3776158,
              -20.4496091
            ],
            [
              57.3762168,
              -20.4497941
            ],
            [
              57.3769464,
              -20.4534291
            ],
            [
              57.3749808,
              -20.4566619
            ],
            [
              57.3776073,
              -20.4571686
            ],
            [
              57.3789376,
              -20.4574581
            ],
            [
              57.3783454,
              -20.460345
            ],
            [
              57.3801221,
              -20.4628861
            ],
            [
              57.3775128,
              -20.4651297
            ],
            [
              57.381667,
              -20.4695041
            ],
            [
              57.3834008,
              -20.4690297
            ],
            [
              57.3851518,
              -20.4701555
            ],
            [
              57.3848514,
              -20.4721094
            ],
            [
              57.3828515,
              -20.4735327
            ],
            [
              57.3812293,
              -20.4760093
            ],
            [
              57.3804065,
              -20.4769165
            ],
            [
              57.3799823,
              -20.479444
            ],
            [
              57.3774096,
              -20.4787411
            ],
            [
              57.3745583,
              -20.4769184
            ],
            [
              57.37367,
              -20.4779543
            ],
            [
              57.3733779,
              -20.4796943
            ],
            [
              57.3738241,
              -20.4811149
            ],
            [
              57.3728655,
              -20.482733
            ],
            [
              57.372762,
              -20.4852984
            ],
            [
              57.3710105,
              -20.4910892
            ],
            [
              57.3730463,
              -20.4902582
            ],
            [
              57.3761868,
              -20.4930887
            ],
            [
              57.377079,
              -20.4925345
            ],
            [
              57.3891717,
              -20.4992904
            ],
            [
              57.394854,
              -20.4999825
            ],
            [
              57.3973659,
              -20.5002828
            ],
            [
              57.3971218,
              -20.5010264
            ],
            [
              57.3981692,
              -20.5026092
            ],
            [
              57.3980498,
              -20.5040286
            ],
            [
              57.4053731,
              -20.5062347
            ],
            [
              57.4088822,
              -20.5062356
            ],
            [
              57.4092038,
              -20.507066
            ],
            [
              57.4168065,
              -20.5121783
            ],
            [
              57.4288563,
              -20.5118328
            ],
            [
              57.4400948,
              -20.5088107
            ],
            [
              57.4451239,
              -20.5036204
            ],
            [
              57.4447095,
              -20.5026984
            ],
            [
              57.4464038,
              -20.5012778
            ],
            [
              57.4484928,
              -20.5021683
            ],
            [
              57.4486375,
              -20.503307
            ],
            [
              57.4479778,
              -20.503996
            ],
            [
              57.4481859,
              -20.5047121
            ],
            [
              57.4484543,
              -20.5043236
            ],
            [
              57.4533302,
              -20.5027838
            ],
            [
              57.4558327,
              -20.5046215
            ],
            [
              57.4579516,
              -20.5076815
            ],
            [
              57.4646929,
              -20.5090325
            ],
            [
              57.4705481,
              -20.5131084
            ],
            [
              57.4700109,
              -20.5153371
            ],
            [
              57.4729906,
              -20.5163688
            ],
            [
              57.4786886,
              -20.5176303
            ],
            [
              57.4813868,
              -20.5190544
            ],
            [
              57.4842643,
              -20.519417
            ],
            [
              57.500176,
              -20.5175679
            ],
            [
              57.5065859,
              -20.5191655
            ],
            [
              57.5111236,
              -20.5226734
            ],
            [
              57.5170194,
              -20.5227059
            ],
            [
              57.518245,
              -20.5194671
            ],
            [
              57.5192033,
              -20.5182648
            ],
            [
              57.5183536,
              -20.5175152
            ],
            [
              57.5190993,
              -20.516739
            ],
            [
              57.5213906,
              -20.5187875
            ],
            [
              57.521064,
              -20.5199544
            ],
            [
              57.522051,
              -20.5222944
            ],
            [
              57.5284521,
              -20.5254142
            ],
            [
              57.5315943,
              -20.5248088
            ],
            [
              57.5361621,
              -20.5237601
            ],
            [
              57.5366892,
              -20.5243567
            ],
            [
              57.537223,
              -20.5228545
            ],
            [
              57.5402203,
              -20.522224
            ],
            [
              57.5402636,
              -20.5212698
            ],
            [
              57.5419074,
              -20.5214629
            ],
            [
              57.545278,
              -20.520684
            ],
            [
              57.5494833,
              -20.5205686
            ],
            [
              57.5509223,
              -20.5198778
            ],
            [
              57.5533461,
              -20.5189732
            ],
            [
              57.5537156,
              -20.51739
            ],
            [
              57.5535859,
              -20.516485
            ],
            [
              57.5562935,
              -20.516018
            ],
            [
              57.558634,
              -20.5169397
            ],
            [
              57.5600204,
              -20.5159766
            ],
            [
              57.564091,
              -20.5168129
            ],
            [
              57.5646596,
              -20.5175665
            ],
            [
              57.5708967,
              -20.5149617
            ],
            [
              57.5758937,
              -20.5132987
            ],
            [
              57.5776459,
              -20.5132598
            ],
            [
              57.577849,
              -20.5138715
            ],
            [
              57.5808467,
              -20.5130581
            ],
            [
              57.5818858,
              -20.5130588
            ],
            [
              57.5819126,
              -20.5137031
            ],
            [
              57.5866306,
              -20.5123566
            ],
            [
              57.589463,
              -20.5105755
            ],
            [
              57.5901577,
              -20.5106685
            ],
            [
              57.5915202,
              -20.508714
            ],
            [
              57.5931376,
              -20.5083955
            ],
            [
              57.5938672,
              -20.5068198
            ],
            [
              57.5959422,
              -20.5061696
            ],
            [
              57.5964475,
              -20.5048828
            ],
            [
              57.5973541,
              -20.5051692
            ],
            [
              57.6009428,
              -20.5008275
            ]
          ]
        ]
      }
    },
    {
      "id": "9",
      "type": "Feature",
      "properties": {
        "name": "Port Louis",
        "id": "604c4c55-5a6f-411f-a9f8-664fd26922a6",
        "cases": 863,
        "intensity": "High",
        "color": "#FFA500",
        "layerName": "High & Moderate Risk - Orange"
      },
      "geometry": {
        "type": "Polygon",
        "coordinates": [
          [
            [
              57.5168517,
              -20.1934476
            ],
            [
              57.5258361,
              -20.197947
            ],
            [
              57.5300983,
              -20.198016
            ],
            [
              57.533188,
              -20.1970621
            ],
            [
              57.5351557,
              -20.1970927
            ],
            [
              57.5363022,
              -20.196032
            ],
            [
              57.5422622,
              -20.1967569
            ],
            [
              57.5447096,
              -20.1968943
            ],
            [
              57.5547913,
              -20.1924249
            ],
            [
              57.5559471,
              -20.1908317
            ],
            [
              57.5556237,
              -20.1834422
            ],
            [
              57.5563878,
              -20.1823201
            ],
            [
              57.5531958,
              -20.1762239
            ],
            [
              57.5548103,
              -20.1710877
            ],
            [
              57.5533437,
              -20.1687393
            ],
            [
              57.5499719,
              -20.1621006
            ],
            [
              57.5504352,
              -20.1604792
            ],
            [
              57.5510514,
              -20.1540813
            ],
            [
              57.546553,
              -20.1476138
            ],
            [
              57.5444086,
              -20.1442469
            ],
            [
              57.5429548,
              -20.1415852
            ],
            [
              57.5307228,
              -20.1441688
            ],
            [
              57.5297988,
              -20.1445604
            ],
            [
              57.5252668,
              -20.1445508
            ],
            [
              57.5222122,
              -20.1429279
            ],
            [
              57.5204164,
              -20.1430978
            ],
            [
              57.5183485,
              -20.1411847
            ],
            [
              57.5159975,
              -20.141184
            ],
            [
              57.5133663,
              -20.1403637
            ],
            [
              57.5105526,
              -20.1402189
            ],
            [
              57.5091002,
              -20.1390958
            ],
            [
              57.5075363,
              -20.1409419
            ],
            [
              57.501654,
              -20.1406238
            ],
            [
              57.4991333,
              -20.139361
            ],
            [
              57.4987359,
              -20.1386031
            ],
            [
              57.4965968,
              -20.1388195
            ],
            [
              57.4868236,
              -20.1439507
            ],
            [
              57.4845001,
              -20.1434581
            ],
            [
              57.4843177,
              -20.1449388
            ],
            [
              57.4883098,
              -20.1481359
            ],
            [
              57.4898518,
              -20.1488893
            ],
            [
              57.491074,
              -20.1494213
            ],
            [
              57.492296,
              -20.1509991
            ],
            [
              57.4969875,
              -20.1539985
            ],
            [
              57.4991905,
              -20.1527227
            ],
            [
              57.4988952,
              -20.1533286
            ],
            [
              57.4997932,
              -20.153775
            ],
            [
              57.4984931,
              -20.155027
            ],
            [
              57.4969924,
              -20.1552304
            ],
            [
              57.4984223,
              -20.1582919
            ],
            [
              57.5001119,
              -20.1578575
            ],
            [
              57.5010068,
              -20.1567774
            ],
            [
              57.5039765,
              -20.1565685
            ],
            [
              57.5049084,
              -20.1568894
            ],
            [
              57.5032223,
              -20.1582214
            ],
            [
              57.5014134,
              -20.157804
            ],
            [
              57.5003696,
              -20.1596497
            ],
            [
              57.5005567,
              -20.1604887
            ],
            [
              57.4991151,
              -20.1611117
            ],
            [
              57.4975672,
              -20.1600451
            ],
            [
              57.4973154,
              -20.1606525
            ],
            [
              57.4967917,
              -20.1597726
            ],
            [
              57.4959826,
              -20.1597555
            ],
            [
              57.4952933,
              -20.1577832
            ],
            [
              57.4896063,
              -20.1543152
            ],
            [
              57.4875546,
              -20.1536597
            ],
            [
              57.4827808,
              -20.1495595
            ],
            [
              57.4808657,
              -20.1487915
            ],
            [
              57.4793309,
              -20.1495079
            ],
            [
              57.4769487,
              -20.1523835
            ],
            [
              57.4817316,
              -20.1568663
            ],
            [
              57.4786958,
              -20.1613661
            ],
            [
              57.4755334,
              -20.1630137
            ],
            [
              57.4761979,
              -20.1632146
            ],
            [
              57.4765298,
              -20.1642627
            ],
            [
              57.477393,
              -20.1690767
            ],
            [
              57.4739631,
              -20.1708304
            ],
            [
              57.4745344,
              -20.1712069
            ],
            [
              57.4747566,
              -20.1729342
            ],
            [
              57.4731088,
              -20.1714549
            ],
            [
              57.4720578,
              -20.174944
            ],
            [
              57.4710931,
              -20.1737679
            ],
            [
              57.4716217,
              -20.1710107
            ],
            [
              57.4731316,
              -20.168216
            ],
            [
              57.4709825,
              -20.1665301
            ],
            [
              57.4687289,
              -20.1817008
            ],
            [
              57.4690031,
              -20.1863335
            ],
            [
              57.4760136,
              -20.1865811
            ],
            [
              57.4788661,
              -20.1829369
            ],
            [
              57.4883203,
              -20.1793773
            ],
            [
              57.4952253,
              -20.1789195
            ],
            [
              57.5024201,
              -20.1825283
            ],
            [
              57.5059325,
              -20.1874791
            ],
            [
              57.5136598,
              -20.1927189
            ],
            [
              57.5168517,
              -20.1934476
            ]
          ],
          [
            [
              57.495717,
              -20.1604617
            ],
            [
              57.4976504,
              -20.1613401
            ],
            [
              57.4959572,
              -20.162364
            ],
            [
              57.495717,
              -20.1604617
            ]
          ]
        ]
      }
    }
  ]
}