{
  "type": "FeatureCollection",
  "features": [
    {
      "id": "0",
      "type": "Feature",
      "properties": {
        "name": "Agaléga",
        "id": "6608cbf2-463f-404b-b119-e37648da60a7",
        "cases": 0,
        "intensity": "Minimal",
        "color": "#FFFFE0",
        "layerName": "Minimal Risk - Light Yellow"
      },
      "geometry": {
        "type": "Polygon",
        "coordinates": [
          [
            [
              56.3859157,
              -10.305127
            ],
            [
              56.3821381,
              -10.3358246
            ],
            [
              56.3818087,
              -10.3593531
            ],
            [
              56.38426,
              -10.3827583
            ],
            [
              56.3894588,
              -10.4057192
            ],
            [
              56.3974317,
              -10.4289665
            ],
            [
              56.4087012,
              -10.4528814
            ],
            [
              56.4173833,
              -10.4687552
            ],
            [
              56.4308583,
              -10.4929615
            ],
            [
              56.4449641,
              -10.5162673
            ],
            [
              56.4781022,
              -10.559502
            ],
            [
              56.4968843,
              -10.5786361
            ],
            [
              56.5004818,
              -10.5822489
            ],
            [
              56.5131503,
              -10.6025853
            ],
            [
              56.5300593,
              -10.6233739
            ],
            [
              56.5473777,
              -10.640336
            ],
            [
              56.5645868,
              -10.6540125
            ],
            [
              56.5858361,
              -10.6672328
            ],
            [
              56.608355,
              -10.6780452
            ],
            [
              56.6347571,
              -10.6868756
            ],
            [
              56.6599941,
              -10.6919915
            ],
            [
              56.6913192,
              -10.6945014
            ],
            [
              56.7160009,
              -10.6933837
            ],
            [
              56.7403624,
              -10.6893089
            ],
            [
              56.7646734,
              -10.6821095
            ],
            [
              56.7878422,
              -10.6720806
            ],
            [
              56.8095698,
              -10.6592804
            ],
            [
              56.8305413,
              -10.6431645
            ],
            [
              56.8514104,
              -10.6232669
            ],
            [
              56.8664816,
              -10.6049903
            ],
            [
              56.8792821,
              -10.5850918
            ],
            [
              56.8896359,
              -10.5638458
            ],
            [
              56.9003484,
              -10.5332145
            ],
            [
              56.9057227,
              -10.5099845
            ],
            [
              56.9082794,
              -10.4862882
            ],
            [
              56.9078305,
              -10.4567948
            ],
            [
              56.9041311,
              -10.4312783
            ],
            [
              56.8968691,
              -10.4052452
            ],
            [
              56.8869162,
              -10.3802818
            ],
            [
              56.8760008,
              -10.3602328
            ],
            [
              56.8628653,
              -10.3415351
            ],
            [
              56.8448398,
              -10.3210395
            ],
            [
              56.8285245,
              -10.3062469
            ],
            [
              56.8227365,
              -10.3017181
            ],
            [
              56.8049719,
              -10.2892414
            ],
            [
              56.7977671,
              -10.2845981
            ],
            [
              56.7839026,
              -10.2561783
            ],
            [
              56.7726352,
              -10.2378407
            ],
            [
              56.756707,
              -10.2163802
            ],
            [
              56.7408138,
              -10.1992173
            ],
            [
              56.7202323,
              -10.1813121
            ],
            [
              56.7012422,
              -10.1677791
            ],
            [
              56.6796429,
              -10.1558707
            ],
            [
              56.6591934,
              -10.1473554
            ],
            [
              56.6361694,
              -10.1406332
            ],
            [
              56.6132854,
              -10.1366294
            ],
            [
              56.5900896,
              -10.1352442
            ],
            [
              56.5653871,
              -10.1366624
            ],
            [
              56.541455,
              -10.1407708
            ],
            [
              56.5181893,
              -10.1476831
            ],
            [
              56.4959234,
              -10.1573003
            ],
            [
              56.4749047,
              -10.1694978
            ],
            [
              56.4570895,
              -10.1827009
            ],
            [
              56.4400341,
              -10.1985898
            ],
            [
              56.4240551,
              -10.2172666
            ],
            [
              56.4104861,
              -10.2377292
            ],
            [
              56.3995286,
              -10.2596741
            ],
            [
              56.3910163,
              -10.2833359
            ],
            [
              56.3859157,
              -10.305127
            ]
          ]
        ]
      }
    },
    {
      "id": "1",
      "type": "Feature",
      "properties": {
        "name": "Saint Brandon",
        "id": "0d286bde-1201-44aa-a213-560165492203",
        "cases": 0,
        "intensity": "Minimal",
        "color": "#FFFFE0",
        "layerName": "Minimal Risk - Light Yellow"
      },
      "geometry": {
        "type": "Polygon",
        "coordinates": [
          [
            [
              59.2904347,
              -16.5604823
            ],
            [
              59.2933045,
              -16.5835297
            ],
            [
              59.2966161,
              -16.601346
            ],
            [
              59.2624434,
              -16.7996219
            ],
            [
              59.2607646,
              -16.8221174
            ],
            [
              59.2618104,
              -16.8464869
            ],
            [
              59.2656801,
              -16.869749
            ],
            [
              59.2723538,
              -16.8924144
            ],
            [
              59.2817404,
              -16.9141709
            ],
            [
              59.2937116,
              -16.9347187
            ],
            [
              59.3081031,
              -16.9537746
            ],
            [
              59.3287628,
              -16.9754585
            ],
            [
              59.3473545,
              -16.9907556
            ],
            [
              59.3676815,
              -17.0038521
            ],
            [
              59.3894641,
              -17.0145677
            ],
            [
              59.4132253,
              -17.0239426
            ],
            [
              59.4366964,
              -17.0303693
            ],
            [
              59.460788,
              -17.034114
            ],
            [
              59.4882291,
              -17.0357259
            ],
            [
              59.5157432,
              -17.0344646
            ],
            [
              59.5407561,
              -17.0309936
            ],
            [
              59.5662985,
              -17.0244091
            ],
            [
              59.6025808,
              -17.0104988
            ],
            [
              59.6176359,
              -17.00418
            ],
            [
              59.642819,
              -16.9957821
            ],
            [
              59.6664031,
              -16.9856342
            ],
            [
              59.6868819,
              -16.9740838
            ],
            [
              59.7058624,
              -16.9603683
            ],
            [
              59.7257333,
              -16.9435018
            ],
            [
              59.7413831,
              -16.9269966
            ],
            [
              59.7550283,
              -16.9089189
            ],
            [
              59.7653994,
              -16.8932864
            ],
            [
              59.7764116,
              -16.8810863
            ],
            [
              59.8012904,
              -16.8600912
            ],
            [
              59.8298793,
              -16.8299207
            ],
            [
              59.8562627,
              -16.7953228
            ],
            [
              59.8700655,
              -16.7759843
            ],
            [
              59.8814295,
              -16.7552259
            ],
            [
              59.8932125,
              -16.7261021
            ],
            [
              59.8993717,
              -16.7024875
            ],
            [
              59.901934,
              -16.6880322
            ],
            [
              59.9111993,
              -16.6593256
            ],
            [
              59.9180534,
              -16.6234374
            ],
            [
              59.9198445,
              -16.6003647
            ],
            [
              59.9197569,
              -16.5727313
            ],
            [
              59.9251725,
              -16.5465501
            ],
            [
              59.9269445,
              -16.5226849
            ],
            [
              59.9260248,
              -16.4943059
            ],
            [
              59.9225027,
              -16.4723903
            ],
            [
              59.9150363,
              -16.4422543
            ],
            [
              59.907303,
              -16.4199807
            ],
            [
              59.8977428,
              -16.3986414
            ],
            [
              59.8856711,
              -16.378215
            ],
            [
              59.8712112,
              -16.35929
            ],
            [
              59.8545619,
              -16.3421253
            ],
            [
              59.8512028,
              -16.3391632
            ],
            [
              59.8432624,
              -16.317837
            ],
            [
              59.7991791,
              -16.1876164
            ],
            [
              59.7916274,
              -16.1656753
            ],
            [
              59.781518,
              -16.1447181
            ],
            [
              59.767661,
              -16.1230135
            ],
            [
              59.7529285,
              -16.1045252
            ],
            [
              59.7360797,
              -16.0878127
            ],
            [
              59.717342,
              -16.073101
            ],
            [
              59.6969683,
              -16.0605885
            ],
            [
              59.6752332,
              -16.0504437
            ],
            [
              59.6524297,
              -16.0428032
            ],
            [
              59.6259155,
              -16.0371172
            ],
            [
              59.6012157,
              -16.0347835
            ],
            [
              59.5764044,
              -16.0353131
            ],
            [
              59.5483832,
              -16.039239
            ],
            [
              59.5246137,
              -16.0453556
            ],
            [
              59.501757,
              -16.0541444
            ],
            [
              59.4815612,
              -16.0643211
            ],
            [
              59.4603987,
              -16.0780163
            ],
            [
              59.4411255,
              -16.0941107
            ],
            [
              59.4235871,
              -16.1127038
            ],
            [
              59.4096406,
              -16.1315159
            ],
            [
              59.3980231,
              -16.1517534
            ],
            [
              59.3888896,
              -16.1731479
            ],
            [
              59.3823621,
              -16.1954157
            ],
            [
              59.3783316,
              -16.2200943
            ],
            [
              59.3772563,
              -16.2441297
            ],
            [
              59.3774932,
              -16.2503599
            ],
            [
              59.3703931,
              -16.3813165
            ],
            [
              59.3302605,
              -16.4294217
            ],
            [
              59.3171946,
              -16.4489116
            ],
            [
              59.306544,
              -16.4697256
            ],
            [
              59.2984518,
              -16.4915862
            ],
            [
              59.2930266,
              -16.5142015
            ],
            [
              59.290342,
              -16.5372696
            ],
            [
              59.2904347,
              -16.5604823
            ]
          ]
        ]
      }
    },
    {
      "id": "2",
      "type": "Feature",
      "properties": {
        "name": "Rodrigues",
        "id": "64a86342-7bc5-42a1-ad41-d3729738a92f",
        "cases": 0,
        "intensity": "Minimal",
        "color": "#FFFFE0",
        "layerName": "Minimal Risk - Light Yellow"
      },
      "geometry": {
        "type": "Polygon",
        "coordinates": [
          [
            [
              63.0844018,
              -19.6744942
            ],
            [
              63.0792226,
              -19.7050515
            ],
            [
              63.0769311,
              -19.7453527
            ],
            [
              63.0788372,
              -19.7711303
            ],
            [
              63.0830632,
              -19.7932727
            ],
            [
              63.0898819,
              -19.8148281
            ],
            [
              63.1034513,
              -19.8444267
            ],
            [
              63.1082701,
              -19.8536392
            ],
            [
              63.115561,
              -19.8752609
            ],
            [
              63.1312056,
              -19.9075716
            ],
            [
              63.1450918,
              -19.9295203
            ],
            [
              63.1686337,
              -19.9577409
            ],
            [
              63.184242,
              -19.9738199
            ],
            [
              63.2023575,
              -19.9887564
            ],
            [
              63.2244137,
              -20.0030762
            ],
            [
              63.2482033,
              -20.0146575
            ],
            [
              63.2710927,
              -20.0233797
            ],
            [
              63.3006009,
              -20.0311742
            ],
            [
              63.3280332,
              -20.0349312
            ],
            [
              63.3536253,
              -20.0356236
            ],
            [
              63.4060821,
              -20.0319463
            ],
            [
              63.4534262,
              -20.0269957
            ],
            [
              63.4790109,
              -20.0218896
            ],
            [
              63.5037355,
              -20.0138474
            ],
            [
              63.528364,
              -20.0023797
            ],
            [
              63.5508501,
              -19.9884582
            ],
            [
              63.5743963,
              -19.9693619
            ],
            [
              63.5918951,
              -19.9512829
            ],
            [
              63.6078542,
              -19.9301021
            ],
            [
              63.6190395,
              -19.9111078
            ],
            [
              63.622856,
              -19.9043191
            ],
            [
              63.6403781,
              -19.8869804
            ],
            [
              63.659156,
              -19.8633105
            ],
            [
              63.6812512,
              -19.8261865
            ],
            [
              63.6984759,
              -19.7911528
            ],
            [
              63.7074267,
              -19.7646106
            ],
            [
              63.7124616,
              -19.739774
            ],
            [
              63.715735,
              -19.7007161
            ],
            [
              63.714802,
              -19.6703264
            ],
            [
              63.7105755,
              -19.6452775
            ],
            [
              63.703203,
              -19.6200134
            ],
            [
              63.6941863,
              -19.5992121
            ],
            [
              63.682774,
              -19.5794961
            ],
            [
              63.6660379,
              -19.5569472
            ],
            [
              63.6490877,
              -19.5391498
            ],
            [
              63.630024,
              -19.5233933
            ],
            [
              63.6074364,
              -19.5086691
            ],
            [
              63.5865692,
              -19.4981796
            ],
            [
              63.5396091,
              -19.4778644
            ],
            [
              63.5110058,
              -19.4674433
            ],
            [
              63.4856811,
              -19.4614052
            ],
            [
              63.456909,
              -19.4582005
            ],
            [
              63.4451218,
              -19.4576801
            ],
            [
              63.4190723,
              -19.4535871
            ],
            [
              63.3962214,
              -19.4520566
            ],
            [
              63.3515186,
              -19.4530662
            ],
            [
              63.3253143,
              -19.4557517
            ],
            [
              63.2949389,
              -19.4574148
            ],
            [
              63.2697243,
              -19.4616705
            ],
            [
              63.2452343,
              -19.4687804
            ],
            [
              63.2215812,
              -19.4783097
            ],
            [
              63.1977251,
              -19.4910875
            ],
            [
              63.1778694,
              -19.5048453
            ],
            [
              63.1598265,
              -19.5206919
            ],
            [
              63.1438398,
              -19.5384138
            ],
            [
              63.1299538,
              -19.5568007
            ],
            [
              63.1175983,
              -19.5777312
            ],
            [
              63.1010294,
              -19.6156899
            ],
            [
              63.09218,
              -19.6418477
            ],
            [
              63.0844018,
              -19.6744942
            ]
          ]
        ]
      }
    }
  ]
}