{
  "type": "FeatureCollection",
  "features": [
    {
      "id": "11",
      "type": "Feature",
      "properties": {
        "name": "Plaines Wilhems",
        "id": "be77099e-1834-49b5-bcb1-13b799ad3a38",
        "cases": 3779,
        "intensity": "Very High",
        "color": "#FF0000",
        "layerName": "Very High Risk (Epicenter) - Red"
      },
      "geometry": {
        "type": "Polygon",
        "coordinates": [
          [
            [
              57.5162216,
              -20.2444556
            ],
            [
              57.5130308,
              -20.2468927
            ],
            [
              57.5114965,
              -20.24686
            ],
            [
              57.5095278,
              -20.2474362
            ],
            [
              57.5079989,
              -20.2462635
            ],
            [
              57.5042921,
              -20.2464598
            ],
            [
              57.505129,
              -20.2450858
            ],
            [
              57.5015294,
              -20.2453324
            ],
            [
              57.5017172,
              -20.242977
            ],
            [
              57.499901,
              -20.2430136
            ],
            [
              57.4999938,
              -20.2421008
            ],
            [
              57.5009558,
              -20.2410532
            ],
            [
              57.4943514,
              -20.2379805
            ],
            [
              57.4933576,
              -20.2382781
            ],
            [
              57.4932168,
              -20.2398925
            ],
            [
              57.4920661,
              -20.239486
            ],
            [
              57.490291,
              -20.2386585
            ],
            [
              57.4888641,
              -20.2383163
            ],
            [
              57.4875498,
              -20.2365597
            ],
            [
              57.4837142,
              -20.235855
            ],
            [
              57.4833012,
              -20.2331269
            ],
            [
              57.4832261,
              -20.2317478
            ],
            [
              57.482577,
              -20.2277612
            ],
            [
              57.4841595,
              -20.2274441
            ],
            [
              57.48321,
              -20.2257176
            ],
            [
              57.4825019,
              -20.2245146
            ],
            [
              57.4833065,
              -20.2226017
            ],
            [
              57.4805599,
              -20.2215749
            ],
            [
              57.4793798,
              -20.2209054
            ],
            [
              57.4791608,
              -20.217776
            ],
            [
              57.4771863,
              -20.2152001
            ],
            [
              57.4779535,
              -20.2146855
            ],
            [
              57.4777041,
              -20.2137106
            ],
            [
              57.4763451,
              -20.2125747
            ],
            [
              57.4758425,
              -20.2102963
            ],
            [
              57.4746563,
              -20.2092242
            ],
            [
              57.4728797,
              -20.2018476
            ],
            [
              57.4716493,
              -20.1980345
            ],
            [
              57.4744442,
              -20.1927103
            ],
            [
              57.4711475,
              -20.1897405
            ],
            [
              57.4710679,
              -20.1876312
            ],
            [
              57.4725378,
              -20.1870875
            ],
            [
              57.4690031,
              -20.1863335
            ],
            [
              57.463944,
              -20.1905328
            ],
            [
              57.4576359,
              -20.1992299
            ],
            [
              57.4519947,
              -20.2012705
            ],
            [
              57.4494326,
              -20.2062111
            ],
            [
              57.4482473,
              -20.2291049
            ],
            [
              57.4521339,
              -20.2595299
            ],
            [
              57.4563968,
              -20.265257
            ],
            [
              57.4494635,
              -20.3103596
            ],
            [
              57.4531603,
              -20.3113135
            ],
            [
              57.4569808,
              -20.3153933
            ],
            [
              57.4586076,
              -20.3210218
            ],
            [
              57.4566419,
              -20.3228767
            ],
            [
              57.4536447,
              -20.3256285
            ],
            [
              57.4561049,
              -20.3291748
            ],
            [
              57.4597476,
              -20.3330292
            ],
            [
              57.4598462,
              -20.3358489
            ],
            [
              57.4603022,
              -20.3374205
            ],
            [
              57.4614096,
              -20.3383258
            ],
            [
              57.4632642,
              -20.3370581
            ],
            [
              57.4672918,
              -20.3380404
            ],
            [
              57.4696984,
              -20.3415315
            ],
            [
              57.4701939,
              -20.3459118
            ],
            [
              57.4668317,
              -20.3496748
            ],
            [
              57.4643194,
              -20.3516643
            ],
            [
              57.463222,
              -20.3511915
            ],
            [
              57.4634315,
              -20.3473624
            ],
            [
              57.4620371,
              -20.3468174
            ],
            [
              57.4575407,
              -20.3472976
            ],
            [
              57.4561747,
              -20.3449114
            ],
            [
              57.4522206,
              -20.3452206
            ],
            [
              57.4498454,
              -20.3445334
            ],
            [
              57.4440873,
              -20.3484596
            ],
            [
              57.4452352,
              -20.3503859
            ],
            [
              57.4427676,
              -20.3536853
            ],
            [
              57.4397957,
              -20.3553953
            ],
            [
              57.4423331,
              -20.3592302
            ],
            [
              57.4403302,
              -20.3633125
            ],
            [
              57.438143,
              -20.3645998
            ],
            [
              57.4402382,
              -20.3672144
            ],
            [
              57.4381076,
              -20.3710034
            ],
            [
              57.4375413,
              -20.3717864
            ],
            [
              57.4408682,
              -20.3739364
            ],
            [
              57.4437986,
              -20.3796561
            ],
            [
              57.4504589,
              -20.3832431
            ],
            [
              57.4508652,
              -20.3851342
            ],
            [
              57.4492354,
              -20.3889951
            ],
            [
              57.4485395,
              -20.3913939
            ],
            [
              57.4474141,
              -20.3923482
            ],
            [
              57.4433745,
              -20.3912144
            ],
            [
              57.4403764,
              -20.3923788
            ],
            [
              57.437948,
              -20.3921249
            ],
            [
              57.4371099,
              -20.3947417
            ],
            [
              57.4424031,
              -20.3954735
            ],
            [
              57.4486564,
              -20.3982011
            ],
            [
              57.450951,
              -20.4002412
            ],
            [
              57.4555188,
              -20.4017597
            ],
            [
              57.4621868,
              -20.4021368
            ],
            [
              57.4636781,
              -20.4044496
            ],
            [
              57.4631739,
              -20.4075567
            ],
            [
              57.4653625,
              -20.4120213
            ],
            [
              57.468313,
              -20.4147261
            ],
            [
              57.467916,
              -20.4155707
            ],
            [
              57.465502,
              -20.4156813
            ],
            [
              57.4652231,
              -20.4177727
            ],
            [
              57.4621363,
              -20.4211589
            ],
            [
              57.4814741,
              -20.4200209
            ],
            [
              57.4820188,
              -20.4183674
            ],
            [
              57.4828726,
              -20.4165538
            ],
            [
              57.4807829,
              -20.4140772
            ],
            [
              57.4816733,
              -20.4119245
            ],
            [
              57.4823278,
              -20.410168
            ],
            [
              57.4818522,
              -20.4098936
            ],
            [
              57.4834661,
              -20.407577
            ],
            [
              57.4843118,
              -20.4069597
            ],
            [
              57.4844744,
              -20.4019567
            ],
            [
              57.4845882,
              -20.4008936
            ],
            [
              57.4865193,
              -20.3999409
            ],
            [
              57.4869624,
              -20.3992589
            ],
            [
              57.4907881,
              -20.3986073
            ],
            [
              57.4927887,
              -20.3957352
            ],
            [
              57.4953799,
              -20.3925267
            ],
            [
              57.4971669,
              -20.3937397
            ],
            [
              57.4986696,
              -20.3913676
            ],
            [
              57.4993561,
              -20.3920111
            ],
            [
              57.5003485,
              -20.3915252
            ],
            [
              57.5023869,
              -20.3931689
            ],
            [
              57.5057122,
              -20.394183
            ],
            [
              57.5078563,
              -20.3950278
            ],
            [
              57.5084827,
              -20.3964111
            ],
            [
              57.508819,
              -20.3959367
            ],
            [
              57.5090225,
              -20.3964011
            ],
            [
              57.5093232,
              -20.3972412
            ],
            [
              57.5102617,
              -20.3983729
            ],
            [
              57.5112211,
              -20.3990169
            ],
            [
              57.5148515,
              -20.3987199
            ],
            [
              57.5159469,
              -20.399385
            ],
            [
              57.5156921,
              -20.3982571
            ],
            [
              57.5178067,
              -20.3984479
            ],
            [
              57.5192083,
              -20.3987299
            ],
            [
              57.6018825,
              -20.3347668
            ],
            [
              57.5930855,
              -20.3340892
            ],
            [
              57.5876401,
              -20.3329803
            ],
            [
              57.5803891,
              -20.3283431
            ],
            [
              57.5741437,
              -20.3265428
            ],
            [
              57.5672139,
              -20.3253812
            ],
            [
              57.5599855,
              -20.3235531
            ],
            [
              57.5582509,
              -20.3222947
            ],
            [
              57.5538859,
              -20.3212298
            ],
            [
              57.5448237,
              -20.3088974
            ],
            [
              57.5355533,
              -20.2981654
            ],
            [
              57.5351686,
              -20.2946981
            ],
            [
              57.5393865,
              -20.2911234
            ],
            [
              57.540545,
              -20.288774
            ],
            [
              57.5401754,
              -20.2842149
            ],
            [
              57.5389476,
              -20.282455
            ],
            [
              57.5379353,
              -20.2827639
            ],
            [
              57.5370124,
              -20.2784757
            ],
            [
              57.5345526,
              -20.2763943
            ],
            [
              57.5334352,
              -20.2717563
            ],
            [
              57.5315445,
              -20.2707495
            ],
            [
              57.5312005,
              -20.2666286
            ],
            [
              57.5300114,
              -20.2662459
            ],
            [
              57.5320038,
              -20.2651412
            ],
            [
              57.5309,
              -20.263978
            ],
            [
              57.5294317,
              -20.2643843
            ],
            [
              57.5293177,
              -20.2631096
            ],
            [
              57.5277001,
              -20.2628656
            ],
            [
              57.527235,
              -20.2595253
            ],
            [
              57.5279038,
              -20.2590047
            ],
            [
              57.5267187,
              -20.2580092
            ],
            [
              57.527802,
              -20.2574991
            ],
            [
              57.5274909,
              -20.2549073
            ],
            [
              57.5259728,
              -20.255018
            ],
            [
              57.5259459,
              -20.2525318
            ],
            [
              57.5239937,
              -20.2514308
            ],
            [
              57.5241656,
              -20.2479087
            ],
            [
              57.5202622,
              -20.2466348
            ],
            [
              57.5188063,
              -20.2482673
            ],
            [
              57.5185105,
              -20.2470303
            ],
            [
              57.5187991,
              -20.2459165
            ],
            [
              57.5167827,
              -20.2459966
            ],
            [
              57.5162216,
              -20.2444556
            ]
          ]
        ]
      }
    }
  ]
}